{"type":"FeatureCollection","name":"Knuckles_Conservation_Forest","crs":{"type":"name","properties":{"name":"urn:ogc:def:crs:OGC:1.3:CRS84"}},"features":[{"type":"Feature","properties":{"name":"Knuckles Conservation Forest","source":"OpenStreetMap relation 10491478","note":"OSM tag says border is approximate","license":"ODbL"},"geometry":{"type":"MultiPolygon","coordinates":[[[[80.7044648,7.5728171],[80.703341,7.5713333],[80.7012168,7.5693555],[80.7010423,7.568987],[80.7010878,7.5686937],[80.701232,7.5682575],[80.7015582,7.5678439],[80.7027341,7.5667008],[80.7032045,7.5662044],[80.7032652,7.5659111],[80.7031438,7.5653922],[80.7027265,7.5649184],[80.7017479,7.5640085],[80.7014141,7.5639333],[80.7011561,7.5640686],[80.7003975,7.56549],[80.6989333,7.56734],[80.6985085,7.5676634],[80.6980836,7.5679191],[80.6975251,7.5682036],[80.6962323,7.5689481],[80.6959856,7.5689747],[80.6957495,7.5688311],[80.6956154,7.5686078],[80.6954491,7.5685706],[80.6949663,7.5688099],[80.6945586,7.5691076],[80.6937647,7.5704849],[80.6935018,7.5706072],[80.693357,7.5705168],[80.6932872,7.5702509],[80.6936574,7.5685493],[80.6938612,7.5678048],[80.6938666,7.5676346],[80.6937754,7.5675389],[80.6934965,7.5675762],[80.6926864,7.5682409],[80.6923753,7.56831],[80.6920588,7.5682196],[80.6918496,7.567959],[80.6918818,7.5676931],[80.6920212,7.5674858],[80.6928259,7.5669061],[80.6935769,7.566151],[80.6936413,7.565917],[80.693652,7.5655395],[80.6935018,7.5651406],[80.6935501,7.564912],[80.6937325,7.5648216],[80.6940865,7.5648428],[80.6946713,7.5649705],[80.6949341,7.5649811],[80.6951916,7.5648588],[80.6954545,7.5644759],[80.6955188,7.5641409],[80.6954598,7.5637102],[80.6952023,7.5631624],[80.6946874,7.5627955],[80.6939578,7.5623914],[80.6935984,7.5621042],[80.6934965,7.5618649],[80.6935769,7.561615],[80.694226,7.5611257],[80.6943226,7.5609343],[80.6942797,7.5607482],[80.6941402,7.5605567],[80.6938398,7.5602962],[80.6936896,7.5600675],[80.6936252,7.5596527],[80.6937593,7.5594134],[80.69399,7.5592752],[80.6943816,7.5591209],[80.6949556,7.5589348],[80.6950629,7.5587965],[80.6951165,7.5586104],[80.6949234,7.5578872],[80.6948912,7.5575947],[80.6949448,7.557281],[80.6966078,7.5537499],[80.6973481,7.5526013],[80.699569,7.5496339],[80.6998587,7.549017],[80.7001269,7.5482725],[80.7002127,7.5475067],[80.700202,7.5466452],[80.700094,7.543763],[80.7002154,7.543387],[80.7004961,7.5431764],[80.7008071,7.5431764],[80.7011561,7.5433419],[80.7025293,7.5445753],[80.7030451,7.5447934],[80.7036217,7.5447783],[80.7040162,7.5445452],[80.7041148,7.5441391],[80.7039783,7.5435148],[80.7037052,7.5429057],[80.7035838,7.5423115],[80.7035383,7.5414466],[80.7035459,7.5407923],[80.7034548,7.5404689],[80.7032576,7.5402057],[80.70281,7.5399801],[80.7020058,7.5395288],[80.7016492,7.5392355],[80.7015354,7.5388745],[80.7016189,7.5383255],[80.701801,7.5376636],[80.7019293,7.5367537],[80.7021439,7.5361155],[80.7024872,7.5356156],[80.7034528,7.5347647],[80.7054806,7.5339138],[80.7067251,7.5335841],[80.7071972,7.5335735],[80.7075834,7.5336267],[80.708828,7.5341159],[80.709579,7.5344988],[80.7102442,7.5347116],[80.7106519,7.5346158],[80.7110488,7.5343606],[80.7111776,7.5338607],[80.711081,7.533382],[80.711199,7.5328821],[80.7114243,7.5324992],[80.7120466,7.5322439],[80.7128298,7.5324567],[80.7141709,7.5332438],[80.7147288,7.5337649],[80.7153726,7.5350094],[80.7157051,7.5358603],[80.7161665,7.5378811],[80.7164884,7.5385725],[80.7169068,7.5391681],[80.7175183,7.5399552],[80.7182372,7.540955],[80.7190847,7.542795],[80.719825,7.5437735],[80.7203829,7.5440607],[80.7208872,7.5440607],[80.7211876,7.543816],[80.7212841,7.5433693],[80.7211876,7.5429758],[80.7208872,7.5420079],[80.7210052,7.5415612],[80.7213056,7.5413272],[80.7222927,7.5410826],[80.7227647,7.5408486],[80.7230008,7.5403168],[80.7228506,7.5398488],[80.7223356,7.5395297],[80.7216918,7.539317],[80.7209194,7.5389766],[80.7202542,7.5385618],[80.7198679,7.5382108],[80.7197714,7.5378705],[80.7198036,7.5375514],[80.7200503,7.5371472],[80.7213378,7.5354454],[80.721488,7.5351264],[80.7214022,7.5348179],[80.720855,7.5340521],[80.7207692,7.5337117],[80.7209086,7.5332863],[80.7227433,7.5319674],[80.7234192,7.5314143],[80.7242346,7.5306272],[80.7246745,7.529904],[80.72505,7.5290637],[80.7256508,7.5273193],[80.7258332,7.5265429],[80.725801,7.5259685],[80.7255971,7.5253516],[80.7253504,7.5243411],[80.725286,7.5235647],[80.725286,7.5230222],[80.7256679,7.5201923],[80.7259638,7.5190039],[80.7265555,7.5176426],[80.72717,7.5166047],[80.727519,7.5162813],[80.7279211,7.5162286],[80.72827,7.5163038],[80.7285431,7.5170785],[80.7288087,7.5173267],[80.7291197,7.5172741],[80.7293625,7.5170785],[80.7295597,7.5163339],[80.7298177,7.516176],[80.7302046,7.5162436],[80.7306142,7.5165219],[80.7313986,7.5179659],[80.7316839,7.5181089],[80.7318888,7.5181164],[80.7320708,7.5179434],[80.7321012,7.5175373],[80.7322377,7.5174019],[80.7327991,7.5173493],[80.7330798,7.5172214],[80.7331557,7.5169958],[80.7329433,7.5167701],[80.7325488,7.5164693],[80.7314336,7.51583],[80.7310087,7.5154915],[80.7306067,7.5149049],[80.7303866,7.5143483],[80.7301891,7.5135556],[80.7301998,7.5128642],[80.7305109,7.5098115],[80.7304895,7.5092797],[80.7302427,7.5089286],[80.7292449,7.5081841],[80.72873,7.5075033],[80.7283437,7.5066949],[80.7282776,7.5063305],[80.7283914,7.5059169],[80.7285811,7.5056386],[80.7286569,7.5054129],[80.7284749,7.5051121],[80.7281335,7.5049466],[80.72761,7.5049842],[80.7271321,7.505097],[80.7267983,7.5053377],[80.72629,7.5061425],[80.725941,7.5071729],[80.7257438,7.5073234],[80.7254251,7.5074136],[80.7250913,7.5074211],[80.7244237,7.5073083],[80.7242113,7.5071128],[80.7241506,7.5067969],[80.7243099,7.5065186],[80.724401,7.5062929],[80.7242947,7.505977],[80.7240899,7.5057138],[80.7239306,7.5055934],[80.723612,7.5055483],[80.7232554,7.505601],[80.7227471,7.5057664],[80.7224209,7.5056686],[80.7217078,7.505082],[80.7215333,7.504736],[80.7214119,7.5040741],[80.7212829,7.5036228],[80.7211691,7.5035476],[80.7209188,7.5035626],[80.7207064,7.5037432],[80.7205622,7.504217],[80.7203877,7.5051421],[80.7200843,7.505977],[80.7196215,7.5067893],[80.7191967,7.5074061],[80.7180333,7.5088276],[80.7176471,7.5089286],[80.7172018,7.5088542],[80.7152277,7.5079607],[80.7150507,7.5077267],[80.7150775,7.5075831],[80.715217,7.5075193],[80.7158124,7.5076894],[80.7160914,7.5076416],[80.7162362,7.5075778],[80.7163821,7.5073158],[80.7164124,7.5068871],[80.7162531,7.5064358],[80.7158814,7.5059319],[80.7155779,7.5056912],[80.7152745,7.505616],[80.7147207,7.5056461],[80.713731,7.5058227],[80.713141,7.5056418],[80.7124114,7.5052589],[80.7114351,7.503791],[80.7111025,7.5036421],[80.7106948,7.5036953],[80.7101369,7.5035889],[80.709697,7.5032804],[80.7095575,7.5028443],[80.7096755,7.5018976],[80.7095468,7.5011637],[80.7092678,7.5006106],[80.7084846,7.5000255],[80.7076156,7.4993288],[80.7072884,7.4989139],[80.7073098,7.4986799],[80.7074118,7.4984778],[80.7076585,7.4984672],[80.7084471,7.4985895],[80.7086885,7.4985682],[80.7089299,7.4983608],[80.7090157,7.4979619],[80.7089299,7.4978024],[80.7087368,7.4976854],[80.707106,7.4977545],[80.7069129,7.4976481],[80.7068324,7.4975471],[80.7067466,7.4972811],[80.7068056,7.4965631],[80.7068646,7.4962653],[80.7071918,7.4959196],[80.7071757,7.4956377],[80.7070309,7.4953346],[80.706709,7.4951005],[80.7063657,7.4950473],[80.7059473,7.4951059],[80.7055879,7.4952175],[80.7052553,7.4953984],[80.7050782,7.4956005],[80.704692,7.4961908],[80.7044131,7.4966695],[80.7039946,7.4970844],[80.7036352,7.4971854],[80.7033724,7.4970471],[80.7032704,7.4968344],[80.7032919,7.4965312],[80.7035547,7.4957494],[80.7035279,7.4953931],[80.7034796,7.4951271],[80.7035816,7.4949144],[80.7037586,7.4947814],[80.7042414,7.4946697],[80.705089,7.4947708],[80.7054001,7.4947123],[80.7059887,7.4943111],[80.7064742,7.4938824],[80.7067397,7.4935063],[80.7073163,7.4922728],[80.7075515,7.4918741],[80.7078246,7.4917162],[80.7097667,7.491152],[80.7101916,7.4909565],[80.7103585,7.4907158],[80.7103509,7.4899937],[80.7104495,7.4883615],[80.7106468,7.4879102],[80.7110261,7.4876921],[80.7114661,7.4877071],[80.7149327,7.4888777],[80.7155657,7.4889522],[80.7159305,7.4889628],[80.7162416,7.4888565],[80.7166278,7.4885693],[80.717572,7.4877502],[80.7188535,7.4867316],[80.7198679,7.4857504],[80.7209408,7.4841867],[80.7210696,7.4835271],[80.7209408,7.4826868],[80.7207155,7.4814847],[80.7202649,7.4796551],[80.719986,7.4789211],[80.7196534,7.4784956],[80.7190204,7.4782828],[80.7184625,7.4779744],[80.7182264,7.4775489],[80.7182693,7.4770808],[80.7187843,7.4762511],[80.7190847,7.4755596],[80.7191384,7.4750597],[80.7189774,7.4744852],[80.7186663,7.4742937],[80.7183552,7.4742725],[80.7179904,7.4744001],[80.7166707,7.4756447],[80.7163274,7.475783],[80.7159197,7.4758149],[80.7153618,7.4755809],[80.714997,7.4751448],[80.7144499,7.4747831],[80.7140744,7.4747192],[80.7136238,7.4748363],[80.7133126,7.4751448],[80.7131731,7.4756766],[80.7130551,7.4765383],[80.7128727,7.4772085],[80.7126367,7.4775808],[80.7122397,7.4776446],[80.711875,7.4773999],[80.7115638,7.476868],[80.7112741,7.4767298],[80.7109201,7.4768468],[80.7105553,7.4773361],[80.7102334,7.4779637],[80.7097614,7.4794743],[80.7095468,7.4799849],[80.7092357,7.4803997],[80.7043111,7.4840697],[80.7040322,7.484176],[80.7037355,7.4841869],[80.7016189,7.4832843],[80.7013306,7.4832692],[80.7009437,7.4833821],[80.7004733,7.4834573],[80.6999954,7.4833219],[80.6996313,7.4829684],[80.6993809,7.4823892],[80.6993354,7.4819003],[80.6994568,7.4815919],[80.6998285,7.4811406],[80.7001926,7.4808547],[80.7017175,7.479922],[80.7023927,7.4794331],[80.7030224,7.4788539],[80.7033183,7.478523],[80.7036781,7.4780382],[80.7054162,7.4748894],[80.7057914,7.4745514],[80.7061935,7.4742279],[80.7065273,7.4741377],[80.7069294,7.4742279],[80.7073239,7.4742354],[80.7075591,7.47407],[80.7076729,7.4737841],[80.7076577,7.4724828],[80.7076956,7.471693],[80.7078777,7.4712567],[80.708295,7.4707904],[80.7083405,7.4704444],[80.7082722,7.4701886],[80.7078018,7.469805],[80.7072784,7.4692559],[80.7069673,7.4687895],[80.7069522,7.4685338],[80.7071494,7.4674506],[80.7074756,7.4661944],[80.7075363,7.4653594],[80.7076501,7.4650736],[80.7078398,7.4649081],[80.7083481,7.4648254],[80.7088184,7.4646599],[80.7090233,7.4644643],[80.7090536,7.4642161],[80.7090157,7.4639829],[80.7088412,7.463336],[80.7087274,7.4625386],[80.7087198,7.4615306],[80.7088867,7.4613351],[80.7091143,7.46132],[80.7095315,7.4614705],[80.712953,7.4634488],[80.7160559,7.4650962],[80.7167538,7.4657506],[80.7169121,7.4661292],[80.7169662,7.4665705],[80.7168221,7.4669767],[80.7164504,7.4671948],[80.71422,7.4672174],[80.7139696,7.467255],[80.7138862,7.4674054],[80.713522,7.4683231],[80.7135372,7.4684736],[80.7135916,7.4685919],[80.7182372,7.4714216],[80.7187946,7.4717381],[80.7190298,7.4718209],[80.7193787,7.4717682],[80.7196443,7.47152],[80.7200994,7.4705798],[80.7219815,7.4656984],[80.7233119,7.463124],[80.7235694,7.4624964],[80.7237518,7.4617411],[80.7238698,7.4605496],[80.7236767,7.4587412],[80.7232261,7.4563689],[80.7231724,7.45522],[80.7232797,7.4541774],[80.7234728,7.4536242],[80.7242238,7.4521562],[80.7244062,7.4516243],[80.7244706,7.4510072],[80.7245457,7.449869],[80.7247066,7.4491349],[80.7251465,7.4487094],[80.7256508,7.4485179],[80.7262194,7.448486],[80.7267666,7.4487626],[80.7272279,7.4494328],[80.7280755,7.4514541],[80.7285368,7.4517519],[80.7289123,7.4515498],[80.7290947,7.4512094],[80.7290304,7.4504966],[80.7287407,7.4489115],[80.7287192,7.4484009],[80.7290304,7.4480711],[80.7294917,7.4477732],[80.7305687,7.4471781],[80.7316915,7.4466665],[80.7325494,7.4465392],[80.7329464,7.4463902],[80.7333434,7.4461562],[80.7336759,7.4456243],[80.733794,7.44522],[80.7337618,7.4441242],[80.733279,7.4429859],[80.7328927,7.4417306],[80.7329357,7.4411348],[80.733118,7.4407093],[80.7334721,7.4404114],[80.734148,7.4400284],[80.734663,7.4396986],[80.7349419,7.4393476],[80.7350492,7.4388582],[80.7346845,7.4367199],[80.7346426,7.4353225],[80.734673,7.4349088],[80.7347413,7.4347207],[80.734984,7.4346305],[80.735242,7.434638],[80.7355606,7.4349088],[80.7359172,7.4354429],[80.7363268,7.4357137],[80.7369565,7.4359695],[80.7373813,7.4359544],[80.7381476,7.435631],[80.7400442,7.4351871],[80.7404538,7.4351721],[80.740818,7.4353075],[80.7418953,7.436135],[80.7422063,7.4362704],[80.7425022,7.4361952],[80.7427449,7.4359921],[80.7427146,7.4357664],[80.742047,7.4348561],[80.7419408,7.4344349],[80.7419484,7.4341791],[80.7423429,7.4326294],[80.7424718,7.4323812],[80.7427753,7.4322759],[80.7438146,7.4323285],[80.744156,7.4322157],[80.7444215,7.432005],[80.7444898,7.4317342],[80.7443836,7.4312904],[80.7441636,7.4297708],[80.7442471,7.4292292],[80.7443533,7.4289884],[80.7463182,7.4269949],[80.7467582,7.4267015],[80.7469706,7.426694],[80.7472513,7.4267993],[80.7474941,7.4273109],[80.7479644,7.4285521],[80.7484651,7.4297181],[80.7486244,7.4303726],[80.7486472,7.4307187],[80.7484348,7.4322157],[80.7483893,7.4327799],[80.748541,7.4336149],[80.7487231,7.4340286],[80.7491024,7.4345628],[80.7495803,7.4349464],[80.7499065,7.4351119],[80.750301,7.4352172],[80.7505817,7.4353752],[80.7507294,7.43564],[80.7507777,7.4359539],[80.7509708,7.4361188],[80.751282,7.4360815],[80.751754,7.4356879],[80.7519203,7.4354432],[80.7519579,7.4352358],[80.7518774,7.4345389],[80.7519579,7.4341506],[80.7521188,7.4339964],[80.7523817,7.434023],[80.7525426,7.4341719],[80.7525909,7.4344964],[80.7527572,7.4349592],[80.753181,7.4357411],[80.7533151,7.4360868],[80.753417,7.4364326],[80.7534867,7.4368475],[80.7536048,7.4371135],[80.7543558,7.4382837],[80.7544202,7.438555],[80.7544523,7.438922],[80.7546133,7.4393529],[80.7550426,7.4398361],[80.7554295,7.4400317],[80.7559605,7.4400618],[80.7563398,7.4398211],[80.7566585,7.4394299],[80.7569146,7.4389539],[80.7571292,7.4384327],[80.7574725,7.4379433],[80.7579553,7.4376454],[80.7589102,7.4372943],[80.7593071,7.4370709],[80.7596612,7.4365709],[80.7598865,7.4359645],[80.7599294,7.4352624],[80.759747,7.4345921],[80.7596075,7.4343794],[80.7588673,7.4337623],[80.7586419,7.4334325],[80.7584917,7.4330176],[80.7585776,7.4325921],[80.7587827,7.4322984],[80.7596183,7.4314644],[80.7598865,7.431092],[80.7600582,7.4305813],[80.7601011,7.4299005],[80.7599616,7.4291238],[80.7598007,7.4286025],[80.7597792,7.4282621],[80.7598827,7.4278299],[80.7606565,7.4264608],[80.7611203,7.4253896],[80.7613456,7.4244747],[80.7613671,7.4238789],[80.7612705,7.4229107],[80.7614422,7.4224745],[80.7617748,7.4222724],[80.7623327,7.4222086],[80.7628798,7.4223469],[80.7634485,7.4227405],[80.7637274,7.4232725],[80.7637167,7.4236342],[80.7633421,7.4247757],[80.7633725,7.4250766],[80.763509,7.425212],[80.7637973,7.4252346],[80.7644118,7.425039],[80.7646242,7.4248584],[80.7647228,7.4244748],[80.7646773,7.4240309],[80.7644118,7.4231206],[80.7644042,7.422752],[80.7645559,7.4223232],[80.7646286,7.4219213],[80.7645535,7.4215383],[80.7645321,7.4209745],[80.7647145,7.4205383],[80.7650149,7.4201978],[80.7654977,7.4200489],[80.7661736,7.4200169],[80.7666778,7.4201978],[80.7673645,7.4206234],[80.7678366,7.4209851],[80.7685017,7.4216022],[80.7697223,7.4236472],[80.7700258,7.4238729],[80.7703444,7.4238805],[80.7705644,7.4237601],[80.7708603,7.4232184],[80.7712396,7.4222029],[80.7714824,7.4218568],[80.7718693,7.4216462],[80.7722865,7.421586],[80.7726886,7.4216687],[80.7738266,7.4223007],[80.7742817,7.4224737],[80.7747521,7.4223307],[80.7750252,7.4221201],[80.7752604,7.4216612],[80.7755866,7.4205779],[80.7758218,7.4196676],[80.7757839,7.4187649],[80.7755487,7.4170873],[80.7753438,7.4162221],[80.775139,7.4156579],[80.7747825,7.4148605],[80.7740915,7.4137186],[80.7738233,7.413059],[80.773673,7.4123249],[80.7737267,7.411644],[80.7739735,7.4110269],[80.7744884,7.4103354],[80.7750463,7.4098779],[80.7757759,7.4095268],[80.7767308,7.4092502],[80.7772565,7.4090055],[80.777514,7.408665],[80.7775032,7.4083033],[80.7772779,7.4078458],[80.7767844,7.4074202],[80.7754121,7.40654],[80.7751314,7.4062616],[80.7746655,7.4053774],[80.7746172,7.4050849],[80.7746118,7.4048402],[80.7744992,7.4046646],[80.7742685,7.4045848],[80.7739252,7.404638],[80.7736731,7.4045316],[80.7736409,7.4043986],[80.7737106,7.4041592],[80.7741237,7.4038081],[80.7743812,7.403723],[80.7747728,7.4036911],[80.775159,7.403739],[80.7755506,7.4038826],[80.7758349,7.4041699],[80.7760227,7.4042922],[80.7762802,7.4043029],[80.7765216,7.4044305],[80.7766557,7.4045795],[80.7768915,7.4050654],[80.777157,7.4052911],[80.7776274,7.4055469],[80.7778777,7.40575],[80.7784846,7.4065174],[80.7787653,7.4067506],[80.7791295,7.4069237],[80.7795391,7.4069838],[80.7806316,7.4067581],[80.7809373,7.4067587],[80.7824523,7.4070967],[80.7827406,7.4071343],[80.7829986,7.4071117],[80.783211,7.407187],[80.7833172,7.4073826],[80.7833779,7.4076609],[80.7833931,7.4083079],[80.7834234,7.4085336],[80.7835372,7.4087442],[80.7835979,7.4089699],[80.7836055,7.4093235],[80.7836662,7.4095567],[80.7838634,7.4097824],[80.7841289,7.4101887],[80.7843186,7.4105874],[80.7844021,7.4110839],[80.7844552,7.4118814],[80.7845917,7.4122575],[80.7849483,7.4126261],[80.7854566,7.4127917],[80.7861318,7.4129496],[80.7865414,7.4131828],[80.7869966,7.4135364],[80.7877097,7.4139502],[80.788476,7.414537],[80.789136,7.4152818],[80.7895381,7.4163952],[80.7898629,7.416804],[80.7902813,7.4170487],[80.7909143,7.4169848],[80.7917511,7.4164316],[80.7933819,7.415772],[80.7939076,7.415357],[80.7942724,7.4148996],[80.7947016,7.4146442],[80.7974052,7.4141867],[80.7982957,7.413974],[80.7988536,7.4136654],[80.7994437,7.4132079],[80.7997441,7.4126547],[80.7999265,7.4121227],[80.8001304,7.411878],[80.8005059,7.4116014],[80.8009565,7.4114099],[80.8014791,7.4112269],[80.8021619,7.4108432],[80.8025336,7.410467],[80.8027764,7.409963],[80.8028067,7.409474],[80.8026409,7.4087607],[80.8026945,7.4083671],[80.8028769,7.4079415],[80.8029199,7.4076436],[80.8027375,7.4073776],[80.8015573,7.4067818],[80.8006132,7.406452],[80.7995617,7.4059626],[80.7989931,7.4056115],[80.7983816,7.4051221],[80.7980919,7.4046327],[80.7977693,7.4037564],[80.7975114,7.4035683],[80.7970259,7.4035307],[80.7950382,7.404268],[80.7947348,7.404268],[80.7941506,7.4040573],[80.7939291,7.4039996],[80.7938486,7.4040794],[80.7937413,7.4045901],[80.7935804,7.4046965],[80.7933497,7.4046912],[80.7929742,7.4044784],[80.792411,7.4040422],[80.7915636,7.4033201],[80.7901829,7.4019358],[80.7888932,7.4011007],[80.7886429,7.401033],[80.7878918,7.4009879],[80.7875959,7.4008675],[80.7873987,7.4006117],[80.7873304,7.4002656],[80.7873987,7.3999271],[80.7875732,7.3996337],[80.7881953,7.3990017],[80.7885973,7.3985353],[80.7888553,7.3981065],[80.7891739,7.397482],[80.7897808,7.3961654],[80.7898263,7.3957893],[80.7898188,7.3954432],[80.7896898,7.3951799],[80.7894774,7.3948865],[80.7889615,7.3945254],[80.7875902,7.3940593],[80.7870801,7.3938859],[80.7867614,7.3938257],[80.7865035,7.3938257],[80.7858283,7.3940965],[80.7852972,7.3942094],[80.78466,7.3942545],[80.7838331,7.3941943],[80.7835144,7.3941492],[80.7828165,7.3941191],[80.7824296,7.3940213],[80.7820427,7.3938784],[80.7813599,7.3934721],[80.7808895,7.3931411],[80.7805026,7.3929831],[80.7801764,7.3929906],[80.7797667,7.3931034],[80.7795998,7.3930583],[80.779524,7.3928627],[80.7796454,7.3925317],[80.7799261,7.3923436],[80.780844,7.3919072],[80.7810944,7.3916815],[80.7812764,7.3912978],[80.7812691,7.3911099],[80.781151,7.3906736],[80.780915,7.3903012],[80.7804859,7.3899608],[80.7803571,7.3896416],[80.780282,7.3892905],[80.7804429,7.3889181],[80.7812369,7.3875881],[80.7814407,7.38712],[80.781548,7.3866092],[80.781945,7.3853431],[80.7823613,7.3848352],[80.7827861,7.3845869],[80.7832565,7.3843838],[80.7835296,7.3841882],[80.7835524,7.3839926],[80.7833779,7.383812],[80.782953,7.3836089],[80.7824979,7.3835261],[80.7819668,7.3836314],[80.7816861,7.3837969],[80.7809806,7.3844741],[80.7802143,7.3855274],[80.7801005,7.3858885],[80.7800247,7.3864377],[80.7798957,7.3869944],[80.7796074,7.3871599],[80.7793495,7.3872201],[80.7780446,7.3872578],[80.7778246,7.3870621],[80.7777715,7.3867612],[80.7779308,7.3863775],[80.7783936,7.3858433],[80.7784315,7.3855725],[80.7783026,7.3853995],[80.7779991,7.3853618],[80.7772177,7.385565],[80.7768687,7.3854446],[80.7767929,7.3852038],[80.776937,7.384948],[80.7779612,7.3844289],[80.778606,7.3840377],[80.7786591,7.3838571],[80.7784922,7.3833756],[80.7785908,7.3831574],[80.7794481,7.3826609],[80.7798426,7.3823299],[80.7801688,7.3819386],[80.7804419,7.381412],[80.7806619,7.3808552],[80.7808895,7.3805769],[80.7812385,7.3804941],[80.7816406,7.380607],[80.7824063,7.3809063],[80.7828033,7.3809808],[80.7832003,7.3810127],[80.7836723,7.3809063],[80.7856462,7.3800276],[80.7860862,7.3799449],[80.7865945,7.3799825],[80.787118,7.3802985],[80.7879828,7.3812465],[80.7882104,7.3812314],[80.7883849,7.3810885],[80.7884001,7.3807951],[80.7879525,7.3800352],[80.787338,7.3792001],[80.7870118,7.3791022],[80.7865945,7.3790345],[80.7863518,7.3789142],[80.7862152,7.3786433],[80.7860787,7.3782972],[80.785889,7.3781693],[80.7856311,7.3781844],[80.7853124,7.3783424],[80.7846903,7.3790571],[80.7844324,7.3791624],[80.7840227,7.3791624],[80.7829227,7.379027],[80.7824979,7.3788389],[80.782202,7.3783725],[80.7822172,7.3779286],[80.7823841,7.37759],[80.7825673,7.3771184],[80.7825887,7.3767886],[80.7824278,7.376512],[80.781724,7.3760326],[80.781633,7.3757317],[80.7817013,7.375521],[80.7833183,7.3747563],[80.7837689,7.3747457],[80.7842088,7.3749159],[80.7847667,7.3754799],[80.7860112,7.3762353],[80.7869339,7.3764588],[80.7880711,7.3764907],[80.7894874,7.3766077],[80.7909143,7.3768737],[80.7952165,7.377959],[80.7959461,7.3780122],[80.7967679,7.3778383],[80.7973824,7.377432],[80.7980045,7.3771536],[80.7983763,7.3771461],[80.798839,7.3773793],[80.7992108,7.3777781],[80.7993928,7.3783198],[80.7993625,7.3786809],[80.7992487,7.3788841],[80.7988846,7.3790722],[80.7987404,7.3792377],[80.7985963,7.3794784],[80.798528,7.3797944],[80.7984674,7.3813744],[80.7985103,7.3826087],[80.7987249,7.383013],[80.7990038,7.3831939],[80.7994974,7.3830768],[80.7998514,7.3828747],[80.8002162,7.3825023],[80.8011496,7.3811723],[80.8015144,7.3809276],[80.8017977,7.3809681],[80.8020936,7.3811411],[80.8022453,7.3814195],[80.8026838,7.382864],[80.8029842,7.3836088],[80.8036601,7.3850026],[80.8040357,7.3852793],[80.8044004,7.3853325],[80.8046901,7.3851409],[80.8047438,7.3849069],[80.8049309,7.3847374],[80.8052268,7.3846922],[80.8061979,7.3848352],[80.8067137,7.3848201],[80.8069338,7.3845944],[80.8068731,7.3842333],[80.8066455,7.3837292],[80.8063193,7.3836841],[80.8055227,7.38397],[80.8052647,7.3840001],[80.804802,7.3838797],[80.8044758,7.3833756],[80.8044758,7.3831123],[80.8045895,7.3827512],[80.8049461,7.3818634],[80.8052116,7.3816979],[80.8056744,7.3815926],[80.8059399,7.3817054],[80.8065696,7.3821794],[80.8069262,7.38236],[80.8073131,7.3823223],[80.8076545,7.3820139],[80.8079503,7.3819161],[80.8081628,7.3819386],[80.8083828,7.3818709],[80.808489,7.3816828],[80.8084814,7.3815399],[80.8081097,7.3804715],[80.8080161,7.3800125],[80.8081019,7.3796188],[80.8085392,7.3792473],[80.8091017,7.3789561],[80.8096866,7.3786163],[80.8098287,7.3781026],[80.8096031,7.3777297],[80.8091435,7.3773402],[80.8088009,7.376669],[80.8086087,7.3760392],[80.8088343,7.3753597],[80.8094777,7.3746139],[80.8096699,7.3742825],[80.8101378,7.373661],[80.8107729,7.3731555],[80.8117505,7.3726334],[80.8121014,7.3722357],[80.8121014,7.3717965],[80.8119176,7.3717136],[80.811458,7.3720617],[80.8109233,7.372534],[80.8098036,7.3730063],[80.8092939,7.3733875],[80.8089346,7.3736858],[80.8087675,7.3735947],[80.808333,7.3730229],[80.8080155,7.3725506],[80.8074557,7.372418],[80.8073805,7.3718628],[80.8068708,7.3719788],[80.8065867,7.372476],[80.8062274,7.3726334],[80.8051411,7.3726583],[80.8046732,7.37236],[80.8039212,7.3715313],[80.8031609,7.3708435],[80.8023921,7.3704209],[80.8019159,7.3700314],[80.8017487,7.3690619],[80.8018323,7.3675455],[80.8020328,7.3665345],[80.8019911,7.3660373],[80.8016401,7.3657058],[80.8010719,7.3658715],[80.8003701,7.3660207],[80.7995345,7.365971],[80.7983032,7.3657243],[80.7961056,7.3655254],[80.7949191,7.3656],[80.794376,7.3650945],[80.7928051,7.3652851],[80.7923873,7.3643155],[80.7931811,7.3637852],[80.7941337,7.3642244],[80.7949191,7.3643901],[80.7952868,7.3639012],[80.7951113,7.3632714],[80.7947186,7.3623102],[80.7945347,7.361324],[80.7947436,7.3601473],[80.7949108,7.3595755],[80.7946434,7.3580176],[80.7946434,7.356758],[80.7943676,7.3559376],[80.794117,7.3551006],[80.7940501,7.3547691],[80.794,7.3539404],[80.7948272,7.353841],[80.7956878,7.3541642],[80.7964816,7.354131],[80.7971166,7.3539156],[80.7975846,7.3532858],[80.79776,7.352714],[80.7974175,7.3523659],[80.7964816,7.3524654],[80.7963229,7.3524654],[80.7963145,7.3516449],[80.7973005,7.3509571],[80.7989048,7.3508577],[80.8002667,7.3507168],[80.8015619,7.3511726],[80.8018543,7.3515787],[80.8017708,7.3519516],[80.8020465,7.3521836],[80.8023724,7.3522913],[80.8025645,7.3525897],[80.8024225,7.3527803],[80.8019629,7.3525897],[80.8017791,7.3523742],[80.8016371,7.3521587],[80.8013195,7.3520842],[80.8010522,7.3523742],[80.8011691,7.3526642],[80.8014532,7.3531283],[80.8014616,7.3536504],[80.8015786,7.3540813],[80.801729,7.3543879],[80.8020214,7.3545702],[80.8022888,7.3546365],[80.8025478,7.3545702],[80.8026982,7.3543548],[80.8025896,7.3539984],[80.8025813,7.3535427],[80.8026147,7.3532443],[80.8027901,7.353062],[80.802999,7.3529294],[80.8029656,7.3527388],[80.803116,7.3526021],[80.8032205,7.3526311],[80.8032789,7.3529377],[80.8033917,7.353033],[80.8035672,7.3530372],[80.8040287,7.3534353],[80.8041173,7.3537869],[80.8041528,7.3543728],[80.8044954,7.3544432],[80.8048854,7.3543377],[80.8049917,7.3541384],[80.8049268,7.353863],[80.8047102,7.35364],[80.8047228,7.3533002],[80.8048105,7.3529273],[80.8049275,7.3527367],[80.8052701,7.3526621],[80.8055249,7.3528486],[80.8055458,7.3530309],[80.805245,7.353321],[80.8052116,7.3536731],[80.8053661,7.3541952],[80.8054998,7.3544645],[80.8054998,7.3547546],[80.8052826,7.3551565],[80.8053453,7.3557863],[80.8051071,7.3561219],[80.8050027,7.3563623],[80.805011,7.3565031],[80.8051322,7.3565653],[80.8051698,7.3567186],[80.8063605,7.357539],[80.8065109,7.3575846],[80.806632,7.3575266],[80.8067908,7.3576301],[80.8068911,7.357829],[80.807171,7.3579285],[80.807689,7.3579326],[80.8076932,7.3577089],[80.8076472,7.3575183],[80.8076556,7.3573691],[80.8081945,7.3575141],[80.8089796,7.3576789],[80.8093637,7.357966],[80.8098068,7.3581711],[80.8102854,7.3581946],[80.8105749,7.3580656],[80.810758,7.3577727],[80.8108762,7.3573801],[80.810888,7.3572336],[80.8109766,7.3571867],[80.8110712,7.3572453],[80.8109944,7.35755],[80.810758,7.3582004],[80.8107285,7.358593],[80.8109766,7.3587278],[80.8111953,7.3585696],[80.8120165,7.3587278],[80.8125365,7.3592493],[80.8139249,7.3598587],[80.8143149,7.3598411],[80.8146457,7.3599876],[80.8148525,7.3605091],[80.8149766,7.3606908],[80.8149825,7.3613881],[80.8150298,7.36181],[80.8151893,7.3620326],[80.8151952,7.362976],[80.8154256,7.3637554],[80.8156856,7.3639956],[80.8156797,7.364605],[80.8156561,7.3648218],[80.8159751,7.3648863],[80.8161642,7.3650093],[80.8160283,7.3651675],[80.8154847,7.3653492],[80.8155674,7.3655601],[80.8159219,7.3657594],[80.816176,7.3660465],[80.8160755,7.3665211],[80.8160283,7.3669547],[80.8161705,7.3670658],[80.8164182,7.3672594],[80.8168968,7.3671891],[80.8172986,7.3669313],[80.8178894,7.3668434],[80.8180135,7.366691],[80.8180962,7.3660875],[80.8192897,7.3658531],[80.8190179,7.364148],[80.8192661,7.3640073],[80.8193901,7.363521],[80.8193665,7.3631108],[80.8192483,7.3627827],[80.8194551,7.3626362],[80.8196206,7.3626889],[80.8198392,7.3623842],[80.8202173,7.3621909],[80.8209263,7.3619916],[80.8212631,7.361517],[80.8218362,7.3619682],[80.8241168,7.3618158],[80.8247136,7.3618627],[80.8247963,7.3621791],[80.8249794,7.3623901],[80.8254403,7.3626303],[80.8258243,7.3626362],[80.8261729,7.3624838],[80.8266928,7.3624077],[80.8272187,7.3624545],[80.8275791,7.3626889],[80.8280222,7.3625893],[80.8290975,7.3635034],[80.8299483,7.3644234],[80.8307755,7.3646988],[80.8308878,7.3642183],[80.8308523,7.3638901],[80.8312659,7.3638608],[80.8313014,7.3635268],[80.8313723,7.3631401],[80.8311479,7.3626217],[80.8311833,7.3623873],[80.8314868,7.3623155],[80.8316454,7.3621157],[80.8318426,7.3617925],[80.8318212,7.3614949],[80.8317055,7.3612058],[80.8314396,7.3607976],[80.831101,7.3607721],[80.8311095,7.3598707],[80.8313925,7.3596964],[80.8312081,7.359454],[80.8309358,7.3593166],[80.8306448,7.3593166],[80.8306743,7.3588025],[80.8311273,7.3579443],[80.8319882,7.3571266],[80.8322914,7.356417],[80.8320004,7.3557556],[80.8318791,7.3551302],[80.8322793,7.3538314],[80.8327522,7.3530256],[80.8327279,7.3525085],[80.8331402,7.3517749],[80.8339648,7.3510172],[80.8346075,7.3506925],[80.8347045,7.3501994],[80.8345105,7.3495139],[80.833989,7.3488645],[80.8332494,7.3483955],[80.8326673,7.3479745],[80.8321216,7.3480948],[80.8313456,7.3481309],[80.8307878,7.3479625],[80.8304846,7.3475897],[80.830327,7.3471206],[80.8270365,7.3473166],[80.8260761,7.34815],[80.825373,7.3489324],[80.824567,7.3487453],[80.8249736,7.3482145],[80.8253382,7.3476654],[80.8251924,7.3472912],[80.8247294,7.3472742],[80.8245665,7.3472062],[80.8246179,7.3469085],[80.8246008,7.3465599],[80.8247208,7.3462537],[80.8247465,7.3459306],[80.8246093,7.3455479],[80.8246008,7.3452418],[80.8243864,7.3450547],[80.8239148,7.3449866],[80.8239577,7.3441787],[80.8239148,7.3438046],[80.8237605,7.3435239],[80.8234261,7.3432263],[80.8231946,7.3428521],[80.8225515,7.3419507],[80.8220456,7.3419167],[80.8213682,7.3420442],[80.8207766,7.3421208],[80.8203993,7.3420952],[80.8190103,7.3409982],[80.8190274,7.340556],[80.8191903,7.3399437],[80.8195847,7.3394675],[80.8205708,7.3391358],[80.8211453,7.3390593],[80.8218055,7.3390168],[80.8227744,7.3388977],[80.8233832,7.3387786],[80.824455,7.3389062],[80.8253382,7.3390678],[80.8262385,7.3397906],[80.8266501,7.3405645],[80.8275761,7.3410833],[80.8281249,7.3411768],[80.8283306,7.3411088],[80.8284335,7.3407601],[80.8281849,7.3403179],[80.8274818,7.3395015],[80.8272503,7.3392719],[80.8272503,7.3390423],[80.8275504,7.3387531],[80.8281334,7.3386001],[80.8286307,7.3384385],[80.8291281,7.3383874],[80.8294367,7.3382854],[80.8297197,7.3378857],[80.8297711,7.3376391],[80.8295482,7.337469],[80.829068,7.3373925],[80.828948,7.3369502],[80.829008,7.3364145],[80.8293253,7.3359467],[80.8296254,7.3359382],[80.829694,7.3357597],[80.8292138,7.3355555],[80.829291,7.3353429],[80.8296511,7.3353344],[80.8297969,7.3352239],[80.829814,7.3350538],[80.8297454,7.3348327],[80.8297711,7.3345435],[80.8298912,7.3342204],[80.8303199,7.3341949],[80.8304657,7.3343479],[80.8303199,7.3346966],[80.8308344,7.3367802],[80.8311087,7.3372819],[80.8311602,7.3376306],[80.8310744,7.3377666],[80.830903,7.3377326],[80.8308001,7.337503],[80.8306114,7.3372309],[80.8303542,7.3372564],[80.8303027,7.3375625],[80.8300284,7.3379707],[80.8299855,7.3382599],[80.830217,7.3386086],[80.8302427,7.3389402],[80.8301484,7.3394079],[80.8303113,7.3399522],[80.8305171,7.3402328],[80.8307743,7.3402754],[80.8313145,7.3389742],[80.8315803,7.3382089],[80.8320005,7.3376561],[80.8326264,7.3374095],[80.8332009,7.3372139],[80.833218,7.3370183],[80.8331495,7.3367631],[80.8331752,7.3360233],[80.8334238,7.3359212],[80.8335696,7.3361253],[80.8337497,7.3362869],[80.8341184,7.3363464],[80.8344099,7.3363549],[80.83465,7.3362869],[80.8348558,7.3361849],[80.8349758,7.3359808],[80.8349329,7.3354025],[80.8351216,7.3345861],[80.8353874,7.3339823],[80.8356703,7.3337101],[80.8356875,7.3335315],[80.8354388,7.3331233],[80.8354731,7.3328767],[80.835919,7.3328597],[80.8360733,7.3327662],[80.8365278,7.3328767],[80.8371022,7.3328937],[80.8376339,7.3327491],[80.8380712,7.3327236],[80.838174,7.3325195],[80.838114,7.3321453],[80.8381055,7.3319157],[80.8381826,7.3317116],[80.8378396,7.3311588],[80.8378654,7.3309122],[80.8380111,7.3308102],[80.838114,7.3307081],[80.8378739,7.3300023],[80.838174,7.3299002],[80.8383713,7.3296706],[80.8384227,7.3293814],[80.838577,7.3291518],[80.8385256,7.3288542],[80.8385685,7.328582],[80.8383198,7.3280548],[80.8380454,7.3281143],[80.8379425,7.3283439],[80.8379168,7.3286586],[80.8377968,7.3289052],[80.8375138,7.3290498],[80.8375996,7.3288712],[80.8375996,7.3286416],[80.8374881,7.3285565],[80.8372394,7.328582],[80.8370594,7.3287564],[80.8369436,7.3287138],[80.8368236,7.328582],[80.8365063,7.3283779],[80.8363863,7.3282674],[80.8362319,7.3282674],[80.8358094,7.3281003],[80.8349305,7.3278239],[80.8347633,7.3277388],[80.8347076,7.3276198],[80.8344117,7.327624],[80.8343989,7.3278494],[80.8345704,7.3279897],[80.8346647,7.3282193],[80.834609,7.3283724],[80.8346518,7.3285255],[80.8349091,7.3286233],[80.8354021,7.3286998],[80.8357879,7.3287934],[80.8359937,7.328955],[80.835938,7.3291506],[80.8358051,7.3292781],[80.8353549,7.3293036],[80.8353078,7.3291336],[80.835192,7.328972],[80.8349862,7.329023],[80.8350334,7.3291761],[80.8350248,7.3292781],[80.8344332,7.3292909],[80.8342317,7.3291421],[80.8336572,7.3288869],[80.8334857,7.3292101],[80.8335629,7.3294184],[80.8337515,7.3295248],[80.8339744,7.3295248],[80.8341717,7.3297416],[80.8342703,7.3302349],[80.8345704,7.3311491],[80.8345875,7.3317784],[80.8349391,7.3321696],[80.8350334,7.3325438],[80.8350934,7.3328244],[80.8349219,7.3328499],[80.8339959,7.3315318],[80.8329584,7.3312171],[80.8324782,7.3305283],[80.8319037,7.329984],[80.8313807,7.3297884],[80.8309091,7.3297289],[80.830549,7.3296438],[80.8302917,7.3294312],[80.830266,7.3292611],[80.8304289,7.3288444],[80.8309177,7.3289039],[80.8313464,7.329091],[80.8317237,7.3291761],[80.8320666,7.3289635],[80.8324739,7.3285],[80.8325425,7.3282193],[80.8324954,7.3279685],[80.8321652,7.3277218],[80.8316422,7.3276155],[80.8314236,7.3274965],[80.8314107,7.3273561],[80.8316122,7.3272924],[80.8320323,7.3273306],[80.8325425,7.3274369],[80.8328555,7.3274327],[80.8329884,7.3272413],[80.8330227,7.3270627],[80.8334986,7.3270585],[80.8347719,7.3272158],[80.8349819,7.3273902],[80.8354278,7.327488],[80.8356936,7.3273774],[80.8358179,7.3271138],[80.8360537,7.3268501],[80.8366925,7.3268076],[80.8372113,7.3270925],[80.8375028,7.3271478],[80.8380001,7.3271648],[80.8383774,7.3274072],[80.8386175,7.3276325],[80.8391534,7.3275645],[80.8396035,7.3278324],[80.8396979,7.3282746],[80.8401823,7.329125],[80.8411341,7.329444],[80.8432862,7.3288104],[80.8446153,7.3282491],[80.845507,7.3276878],[80.8460386,7.3274412],[80.8482337,7.3275773],[80.8485856,7.3268881],[80.8486199,7.3265309],[80.8483026,7.3262077],[80.8477882,7.3259951],[80.8472737,7.3258845],[80.8469479,7.3258675],[80.8467128,7.3263285],[80.8458033,7.3264849],[80.8457124,7.3262082],[80.8450636,7.3263105],[80.8446392,7.3266112],[80.8444452,7.3268036],[80.8442815,7.3267314],[80.8442997,7.3265149],[80.8446514,7.3259196],[80.8448939,7.3257091],[80.845579,7.3255047],[80.8461853,7.325198],[80.8461004,7.3243801],[80.8460034,7.3239592],[80.845482,7.3235924],[80.845294,7.3233819],[80.8452334,7.3228767],[80.8451546,7.3226482],[80.8452637,7.3225099],[80.8453971,7.3222754],[80.8455305,7.3221551],[80.8455366,7.3219807],[80.8450273,7.3217823],[80.8442269,7.3219206],[80.8438753,7.3215357],[80.8435539,7.3207119],[80.843748,7.3204954],[80.8440814,7.320351],[80.8458397,7.3175547],[80.8465309,7.3175908],[80.8469614,7.3178013],[80.8470523,7.3179997],[80.8472888,7.3175427],[80.8471251,7.3170375],[80.8469614,7.3167188],[80.8467855,7.3167308],[80.8465612,7.3167609],[80.8464157,7.3165625],[80.8462581,7.3160453],[80.8460398,7.3160272],[80.8458518,7.3161235],[80.8455669,7.3160814],[80.8454214,7.3157867],[80.8449969,7.315931],[80.8430568,7.319449],[80.8422383,7.3196474],[80.8421291,7.3194731],[80.8425899,7.3185229],[80.8433417,7.3174465],[80.8433175,7.3172179],[80.8431235,7.3170676],[80.8433902,7.3164061],[80.8438207,7.3157987],[80.8440026,7.3156724],[80.8440936,7.3154499],[80.8433478,7.3150891],[80.8431295,7.3146621],[80.8428749,7.3143494],[80.8427536,7.3142532],[80.8424262,7.3142472],[80.841923,7.3152515],[80.8416017,7.315468],[80.8414865,7.3152815],[80.8413955,7.3150109],[80.8410317,7.3155702],[80.8408741,7.3161054],[80.8408498,7.3166166],[80.8384671,7.3171037],[80.8383701,7.31634],[80.8368281,7.3164616],[80.8361976,7.315319],[80.8357974,7.3138998],[80.8355064,7.3132503],[80.8351547,7.3127692],[80.8349122,7.3121678],[80.8348273,7.310905],[80.8345727,7.3090527],[80.8344514,7.3087761],[80.8341725,7.3086077],[80.834126,7.3083148],[80.8340896,7.307942],[80.8342594,7.3080021],[80.8344898,7.3079059],[80.8343685,7.3075691],[80.8339199,7.3073286],[80.8336167,7.3072804],[80.8333984,7.3073646],[80.8332529,7.3071121],[80.8328528,7.3067993],[80.8325496,7.306643],[80.8325072,7.3068595],[80.8328891,7.3073646],[80.8330832,7.3078157],[80.8332165,7.3083028],[80.8333621,7.3085975],[80.8336773,7.3085794],[80.833841,7.3087057],[80.8337622,7.3088019],[80.8332711,7.3087899],[80.8325193,7.3085914],[80.8321434,7.3082005],[80.8319736,7.3073526],[80.8319676,7.306649],[80.8320888,7.3060416],[80.8320646,7.3057409],[80.832198,7.3054823],[80.8323677,7.3055906],[80.8324284,7.305771],[80.8326284,7.3059694],[80.83278,7.3058011],[80.8326648,7.3056387],[80.8328952,7.3054883],[80.833259,7.3055004],[80.8334166,7.3054282],[80.833356,7.3051636],[80.8331559,7.3049351],[80.8330407,7.3047426],[80.8330407,7.3044419],[80.8333621,7.3041653],[80.8343503,7.3045983],[80.8344352,7.3043818],[80.8341078,7.304057],[80.8339623,7.3038826],[80.834029,7.3034797],[80.8344898,7.303149],[80.8348839,7.3029986],[80.8352113,7.3030106],[80.8353568,7.3028062],[80.8352113,7.3024574],[80.8353689,7.3021928],[80.8356236,7.3020965],[80.8360116,7.3022288],[80.836533,7.3020725],[80.8369236,7.3017778],[80.8385363,7.3024814],[80.8401006,7.3025897],[80.84158,7.3005209],[80.843411,7.2989573],[80.8444175,7.2993662],[80.8453269,7.3008577],[80.8458315,7.301073],[80.8464402,7.3009414],[80.8479604,7.3004789],[80.8486252,7.2998293],[80.8486858,7.299252],[80.8491466,7.2978086],[80.8495468,7.2969426],[80.8496923,7.2965578],[80.8497863,7.296233],[80.8496832,7.2957068],[80.8495407,7.2955835],[80.8496104,7.2954903],[80.8499015,7.295373],[80.8501409,7.2955534],[80.8510625,7.2966871],[80.851202,7.297093],[80.851305,7.297529],[80.8515354,7.2976884],[80.8513384,7.2981244],[80.851299,7.2986566],[80.8520023,7.2994264],[80.8518083,7.2997602],[80.8519538,7.3003555],[80.8521326,7.3008637],[80.8527571,7.3008336],[80.8533982,7.3012859],[80.8537531,7.3017647],[80.8541822,7.3017647],[80.8546758,7.3016263],[80.8549869,7.3015625],[80.8554751,7.3015784],[80.8560759,7.30177],[80.856784,7.3022595],[80.8571434,7.3026267],[80.8572668,7.3030949],[80.8573151,7.3034567],[80.8574277,7.3038185],[80.8581734,7.3050211],[80.8584416,7.3052552],[80.8587795,7.3053988],[80.8591113,7.305436],[80.8594543,7.3053297],[80.8597029,7.3050959],[80.8598487,7.3047344],[80.8602303,7.3042581],[80.8599559,7.3035225],[80.8596944,7.3033906],[80.859017,7.3035225],[80.8590213,7.3030207],[80.8585919,7.3018135],[80.858598,7.3014045],[80.859174,7.3012422],[80.8595681,7.3012301],[80.8597803,7.3010918],[80.8593377,7.3003822],[80.8591619,7.2999372],[80.8588466,7.2996425],[80.8585556,7.2987945],[80.8583797,7.2980067],[80.8587375,7.2967257],[80.8588769,7.2956192],[80.859368,7.2960341],[80.8595923,7.29684],[80.8598227,7.297261],[80.8600471,7.297273],[80.8601138,7.296852],[80.8604935,7.2967018],[80.8608958,7.2966512],[80.8612928,7.2966965],[80.8616334,7.2967976],[80.8618936,7.2969013],[80.8620948,7.2969173],[80.8622315,7.29688],[80.8623254,7.2967843],[80.8623496,7.2966512],[80.862312,7.29634],[80.8621967,7.2959755],[80.8621538,7.2957467],[80.8621725,7.2955578],[80.8622745,7.295305],[80.8623898,7.295172],[80.8625481,7.2950683],[80.8631034,7.2948373],[80.8632109,7.2947378],[80.8634037,7.2943606],[80.8636075,7.2940945],[80.8637443,7.2940014],[80.863865,7.2939508],[80.8640043,7.293944],[80.864152,7.2939854],[80.8643237,7.2940865],[80.8644819,7.2942408],[80.865074,7.2950255],[80.8652946,7.2953849],[80.8654448,7.2957839],[80.8657747,7.2965368],[80.8658579,7.2967683],[80.865984,7.2972977],[80.8660538,7.2974958],[80.8663058,7.2979017],[80.8669892,7.2984277],[80.8674682,7.2991674],[80.8677228,7.2993899],[80.8680321,7.2992877],[80.8682564,7.29942],[80.8686808,7.3002138],[80.8690446,7.3005867],[80.8694326,7.3005746],[80.8697782,7.3008513],[80.8698692,7.301176],[80.8695539,7.3015489],[80.8695296,7.3021082],[80.8699359,7.3027035],[80.8698085,7.3030403],[80.869469,7.3036297],[80.8696206,7.3040867],[80.8699904,7.3043874],[80.8700753,7.3048084],[80.8702451,7.3061795],[80.8699601,7.3079837],[80.8698328,7.3085129],[80.8701177,7.309006],[80.8699904,7.3093849],[80.869469,7.3096435],[80.8693962,7.3100644],[80.869469,7.3104313],[80.8700025,7.3108221],[80.8699359,7.3116099],[80.8697964,7.3119106],[80.8694266,7.3118024],[80.8686379,7.3123294],[80.8680119,7.3125846],[80.8674803,7.3125633],[80.8668115,7.3127206],[80.8666443,7.3123082],[80.8664042,7.3118957],[80.866207,7.3122997],[80.8662542,7.3128355],[80.8658512,7.3131459],[80.8655382,7.3132012],[80.8653453,7.3129418],[80.8652553,7.3126101],[80.8651567,7.312406],[80.8649509,7.312372],[80.8648823,7.3121763],[80.8649852,7.3119382],[80.8649552,7.3117469],[80.8647622,7.311615],[80.8645007,7.3115215],[80.8645522,7.3109134],[80.8646251,7.3105392],[80.8647622,7.3103904],[80.8646851,7.3102033],[80.8644321,7.3101437],[80.8644236,7.30971],[80.8641492,7.3097483],[80.8640849,7.3100629],[80.8634675,7.310216],[80.8630088,7.3103861],[80.8624729,7.3104839],[80.8620099,7.3106795],[80.8616412,7.3110707],[80.8615597,7.3114279],[80.8615468,7.3117341],[80.8616197,7.3119255],[80.8615554,7.3123507],[80.8612896,7.3128737],[80.860788,7.3130438],[80.8597248,7.3130396],[80.8592403,7.3136264],[80.8594375,7.3152848],[80.8599863,7.3167306],[80.8598062,7.31753],[80.8596948,7.3183294],[80.8599777,7.3187121],[80.8607151,7.3189248],[80.8610067,7.3199028],[80.8613754,7.320294],[80.8625157,7.3201749],[80.8636476,7.3198092],[80.8651052,7.3197582],[80.8660998,7.3200899],[80.8666915,7.320345],[80.8672574,7.3205406],[80.8674632,7.320396],[80.8677461,7.3196902],[80.8677719,7.3192054],[80.8677118,7.3186781],[80.8676775,7.3181083],[80.8679862,7.3182274],[80.8681063,7.3188992],[80.8683549,7.3192734],[80.8687665,7.3191544],[80.8689037,7.3195201],[80.8689466,7.3198262],[80.869401,7.3197837],[80.8696582,7.319435],[80.8698297,7.319316],[80.8699069,7.3195456],[80.8701911,7.3196666],[80.8702881,7.3200996],[80.8707368,7.3200996],[80.8705913,7.3204604],[80.8707125,7.3209054],[80.8708823,7.321158],[80.8711976,7.3210257],[80.8715128,7.320725],[80.871816,7.3204965],[80.8719494,7.3201597],[80.8721919,7.3198951],[80.8726042,7.3198951],[80.8726527,7.3202319],[80.8722161,7.3206769],[80.8714279,7.3213985],[80.8711369,7.3215789],[80.8705064,7.3217232],[80.8700395,7.3215067],[80.8699304,7.3212121],[80.8698698,7.3209655],[80.8696212,7.320755],[80.8692756,7.320755],[80.8690876,7.3216451],[80.868936,7.3225591],[80.8688694,7.3231003],[80.8689603,7.3234371],[80.8689724,7.3236656],[80.8690876,7.3235694],[80.8690634,7.3231184],[80.8693544,7.3224449],[80.869415,7.3221141],[80.8693665,7.3218435],[80.8694211,7.321603],[80.8697121,7.3216691],[80.8699728,7.3218916],[80.8701487,7.3221442],[80.8704882,7.3222524],[80.8720221,7.3221382],[80.8727558,7.3223907],[80.873071,7.3229079],[80.8730043,7.3235514],[80.8719847,7.3239721],[80.8710025,7.3249463],[80.8701294,7.3263415],[80.8700324,7.3276163],[80.8689289,7.3286146],[80.8685773,7.3299616],[80.868165,7.3306832],[80.8684439,7.3316694],[80.868553,7.3327398],[80.8674435,7.3329864],[80.8672495,7.3327157],[80.8676315,7.3324692],[80.8677467,7.3317416],[80.8675284,7.3315912],[80.8667463,7.3317476],[80.8667341,7.3314589],[80.8666432,7.3311342],[80.8664916,7.3309117],[80.8669463,7.3307614],[80.8671949,7.3306471],[80.8672313,7.3303825],[80.8668675,7.3302743],[80.8653189,7.3305449],[80.865513,7.3309298],[80.8656585,7.3314229],[80.8652341,7.33194],[80.8649188,7.3321685],[80.8647823,7.3320877],[80.8648381,7.3314797],[80.8645851,7.3312288],[80.8644394,7.3313649],[80.8644736,7.3318411],[80.8642636,7.3318624],[80.8640792,7.331603],[80.8638777,7.3316413],[80.8638606,7.3318326],[80.8640192,7.3323173],[80.8647909,7.3325895],[80.8656012,7.3332613],[80.8660128,7.3336525],[80.8664843,7.3339714],[80.8669902,7.3349537],[80.8672646,7.3355745],[80.8671531,7.3360167],[80.8665101,7.3364079],[80.8659613,7.336595],[80.8652582,7.3365014],[80.8658758,7.3372772],[80.8667333,7.3377194],[80.8674878,7.3373112],[80.8681909,7.3374813],[80.8685596,7.3377492],[80.8688083,7.3377619],[80.8690612,7.3380341],[80.869177,7.3383657],[80.8691469,7.3384975],[80.8682766,7.3387952],[80.8682981,7.338944],[80.8685896,7.338995],[80.8689154,7.3391481],[80.8688511,7.3398752],[80.8684696,7.3404195],[80.8680323,7.3406533],[80.868148,7.341491],[80.8686582,7.34198],[80.8671373,7.3440994],[80.8669315,7.3441717],[80.8666914,7.3437337],[80.8661426,7.3435467],[80.8657696,7.3437763],[80.8651609,7.3440654],[80.865491,7.3451071],[80.8657396,7.3451539],[80.8659669,7.3451029],[80.8662284,7.3463955],[80.866104,7.3468462],[80.8656882,7.3471311],[80.8662667,7.3472103],[80.8666354,7.347559],[80.8669398,7.3474697],[80.8675014,7.3472358],[80.8680202,7.3470572],[80.868346,7.3468957],[80.8686204,7.3467043],[80.8686375,7.3465045],[80.8684232,7.3463131],[80.8682302,7.3458497],[80.8687018,7.345535],[80.8688004,7.344893],[80.8688176,7.3443104],[80.8691863,7.344455],[80.8690963,7.3449355],[80.8690234,7.3467511],[80.8690448,7.3472868],[80.8689891,7.3475122],[80.8682088,7.34869],[80.8672571,7.3494851],[80.8664682,7.3501995],[80.8656022,7.3507352],[80.8647619,7.3512157],[80.8640974,7.3515133],[80.8636797,7.3511459],[80.8633796,7.3508142],[80.8632596,7.3503975],[80.8634054,7.3499553],[80.8637826,7.3494961],[80.8641165,7.3494025],[80.8642257,7.3491469],[80.8642257,7.348723],[80.864159,7.348293],[80.8641438,7.347809],[80.8638013,7.3475654],[80.863489,7.3467927],[80.8631919,7.3465823],[80.8627493,7.3465642],[80.8624765,7.3465282],[80.8620703,7.3462756],[80.8617368,7.3458487],[80.8615003,7.3454638],[80.8613912,7.3452353],[80.8608455,7.3452473],[80.8605121,7.3453375],[80.8604696,7.3456562],[80.8607303,7.3459509],[80.8611911,7.3462215],[80.8616155,7.3465883],[80.8617307,7.3470212],[80.8615974,7.3477368],[80.8611487,7.348254],[80.8607788,7.3490597],[80.8604514,7.3491078],[80.860215,7.348735],[80.8605121,7.3483021],[80.8605125,7.3480089],[80.8603241,7.3475384],[80.8594086,7.3479232],[80.8590873,7.3481638],[80.857736,7.3474942],[80.8567659,7.3471755],[80.8561596,7.3476806],[80.85639,7.3493282],[80.85619,7.350146],[80.8558019,7.3509638],[80.8560869,7.3512945],[80.8568811,7.3511983],[80.8575481,7.3513547],[80.857736,7.3518417],[80.8578452,7.3524972],[80.8564385,7.3522506],[80.8550744,7.3521905],[80.8538254,7.3520522],[80.8534495,7.3523528],[80.8533403,7.3528339],[80.8536314,7.3532909],[80.8532676,7.3539403],[80.8527765,7.3537118],[80.8509697,7.3532729],[80.850036,7.3534593],[80.8486971,7.3529043],[80.8467398,7.3524754],[80.8429845,7.3509405],[80.842681,7.3509932],[80.8424307,7.3513017],[80.8423591,7.3521137],[80.8424449,7.3529968],[80.8425414,7.3547738],[80.8425093,7.3559017],[80.8426809,7.3566465],[80.8430564,7.3574765],[80.8436036,7.3582213],[80.8440113,7.3587427],[80.8452558,7.3598706],[80.8453309,7.3601473],[80.8452988,7.360392],[80.8443332,7.3618604],[80.8441079,7.3626371],[80.8441376,7.3661013],[80.8442211,7.3666881],[80.8442135,7.3671095],[80.843728,7.3686819],[80.8435914,7.3693666],[80.8435914,7.3697729],[80.8437431,7.3700588],[80.8440864,7.3702768],[80.8445102,7.3705003],[80.8447677,7.3707929],[80.8457226,7.3717558],[80.8462429,7.3720591],[80.8466721,7.3721602],[80.8472192,7.3720857],[80.8476162,7.3718622],[80.8478522,7.3716069],[80.8479434,7.3711121],[80.847407,7.3696171],[80.8474177,7.3693618],[80.8477074,7.3686276],[80.8477127,7.3683084],[80.8476323,7.3681062],[80.8473962,7.3680105],[80.8471173,7.3679786],[80.8466613,7.3682126],[80.8464253,7.3682339],[80.8462858,7.368085],[80.8462322,7.3678881],[80.8463019,7.3677498],[80.8468974,7.3675529],[80.8472353,7.3673242],[80.8473426,7.3671007],[80.8474016,7.366606],[80.8475625,7.3662336],[80.8477664,7.3659143],[80.8493113,7.3649354],[80.8507061,7.3639991],[80.8526695,7.3623924],[80.8532703,7.3616582],[80.8536136,7.3609134],[80.8538478,7.3608159],[80.8541,7.360911],[80.8545806,7.3615754],[80.8546825,7.3617921],[80.8548136,7.3623699],[80.8548719,7.3628032],[80.8546144,7.3632038],[80.8540428,7.3635309],[80.8534098,7.3637118],[80.8529377,7.3638076],[80.8524549,7.3639352],[80.8515429,7.3647865],[80.8512425,7.3652121],[80.8512318,7.3656803],[80.8515108,7.3662974],[80.8521759,7.3666485],[80.8528304,7.3667124],[80.8540964,7.3664144],[80.854679,7.3660796],[80.8561459,7.3646747],[80.8573478,7.364161],[80.8577993,7.364031],[80.8579741,7.3639299],[80.8582654,7.3634099],[80.8585275,7.3630632],[80.8587314,7.3627021],[80.8591829,7.3615899],[80.8593868,7.3612577],[80.8598237,7.3607232],[80.8598966,7.3605499],[80.8599694,7.3601743],[80.8599985,7.3587444],[80.8596237,7.3577347],[80.8596066,7.357233],[80.8600782,7.356119],[80.8604211,7.3551241],[80.8607384,7.35492],[80.8609442,7.3551326],[80.8616816,7.3547839],[80.8625476,7.3557108],[80.8637792,7.3558964],[80.8645302,7.3548962],[80.8647716,7.354976],[80.8649272,7.3551782],[80.8649164,7.355657],[80.8649862,7.3558751],[80.865131,7.3560613],[80.8653992,7.3560826],[80.8656299,7.3560028],[80.8657587,7.3558059],[80.8658123,7.3555772],[80.8659941,7.3555302],[80.8663204,7.3555527],[80.8666238,7.3557258],[80.8667907,7.3561396],[80.8675721,7.3565459],[80.8677845,7.3571629],[80.8680425,7.3573961],[80.868217,7.3580281],[80.8682473,7.3586978],[80.868399,7.3593373],[80.8688239,7.3602627],[80.8688315,7.3606013],[80.8687708,7.3609324],[80.8686418,7.3612333],[80.868399,7.3614515],[80.868088,7.3615945],[80.8677845,7.3618428],[80.8676252,7.3621889],[80.8675038,7.3628585],[80.8675494,7.3631895],[80.8677011,7.363498],[80.8679211,7.3637388],[80.8682245,7.3639043],[80.8685508,7.3638817],[80.8688618,7.3637689],[80.8691425,7.3635883],[80.8693322,7.3633024],[80.8694839,7.3629864],[80.8699694,7.3631444],[80.8703108,7.3631068],[80.8706446,7.3631369],[80.871335,7.3632723],[80.8726323,7.3637839],[80.8728978,7.3640172],[80.8729888,7.3643407],[80.8729433,7.3646717],[80.8724805,7.3655746],[80.8721998,7.3657326],[80.8718584,7.3657627],[80.8715474,7.3656724],[80.8712212,7.3655144],[80.8707053,7.3651006],[80.8704094,7.3649727],[80.870068,7.3650028],[80.869757,7.3651457],[80.8692791,7.3656498],[80.8683914,7.366169],[80.867739,7.3659658],[80.8671549,7.3656498],[80.8668286,7.3656197],[80.86651,7.3657176],[80.8662824,7.3659583],[80.8662217,7.3662894],[80.8663659,7.3667032],[80.8668438,7.3671772],[80.8669603,7.367787],[80.8670998,7.3682552],[80.8672714,7.3686915],[80.8675074,7.3690958],[80.8677864,7.3695001],[80.8681726,7.3698193],[80.8685911,7.3700853],[80.8690739,7.3701598],[80.8694386,7.3690958],[80.8696425,7.3695214],[80.8697927,7.3699789],[80.8703184,7.3707769],[80.8707583,7.3709365],[80.8711338,7.3706493],[80.8716917,7.3698619],[80.8720887,7.369564],[80.87255,7.3694576],[80.8730113,7.3694576],[80.8734834,7.3695746],[80.8736229,7.3700108],[80.8735692,7.3713834],[80.8740091,7.3726709],[80.8744812,7.3734902],[80.8745134,7.373969],[80.8750284,7.3749479],[80.8749962,7.375416],[80.8746636,7.3757459],[80.8744061,7.3761608],[80.8743203,7.3766396],[80.8745241,7.3770546],[80.8749533,7.3772568],[80.8754253,7.3773738],[80.8758759,7.377278],[80.8763158,7.377044],[80.8767557,7.376895],[80.8770561,7.3770865],[80.87726,7.3775015],[80.8773351,7.3779909],[80.877614,7.378874],[80.8778822,7.379289],[80.8782899,7.3795656],[80.8792476,7.3800577],[80.880146,7.3801934],[80.8806288,7.3801296],[80.8809614,7.3797678],[80.8813567,7.3787787],[80.8815463,7.3784176],[80.8821912,7.3774771],[80.8826995,7.3760864],[80.8828068,7.3756182],[80.8830712,7.3752351],[80.8838678,7.3743097],[80.8852851,7.3724049],[80.8855104,7.3720006],[80.8857796,7.3710519],[80.8859085,7.3700513],[80.8859181,7.3691064],[80.8858859,7.3686489],[80.8861649,7.3682658],[80.886637,7.3682126],[80.8870554,7.3684042],[80.8873451,7.3687979],[80.8877849,7.3696491],[80.8880961,7.3705748],[80.888321,7.3707886],[80.8888369,7.3711272],[80.8891859,7.3717065],[80.8892466,7.37203],[80.8893983,7.372361],[80.8896942,7.372504],[80.8900204,7.3725717],[80.8902935,7.3724814],[80.8905438,7.3722632],[80.8908018,7.3713077],[80.890999,7.3710218],[80.8913404,7.3709842],[80.8916666,7.3711046],[80.8917425,7.3714582],[80.8916514,7.3721052],[80.8915528,7.3724288],[80.8913404,7.3733767],[80.8909535,7.374257],[80.8907866,7.3745354],[80.8905666,7.3747837],[80.8902555,7.3749041],[80.8899293,7.3749567],[80.8895981,7.3750915],[80.8894318,7.3752564],[80.8893192,7.3754692],[80.8892924,7.375698],[80.8894318,7.3758895],[80.8899039,7.3760544],[80.8906335,7.3761342],[80.8911055,7.3762353],[80.8922481,7.3771184],[80.8933854,7.3780388],[80.8935571,7.3782037],[80.8936483,7.3784165],[80.8937073,7.3791081],[80.8938038,7.3795337],[80.8941579,7.380204],[80.8948553,7.3812893],[80.8949035,7.3815287],[80.8948821,7.3817575],[80.8947088,7.3823299],[80.8948499,7.3828534],[80.8949465,7.3833162],[80.8949357,7.3835503],[80.8947909,7.3837418],[80.8945924,7.3838588],[80.8941579,7.3840025],[80.8939272,7.3839493],[80.8936107,7.3838322],[80.8931816,7.3838854],[80.8925378,7.3845451],[80.8924627,7.3850984],[80.8925164,7.3855772],[80.8927953,7.3862049],[80.893085,7.3865667],[80.8932781,7.3869816],[80.8931386,7.3874179],[80.8927309,7.3876413],[80.8907032,7.3878009],[80.8897912,7.3878009],[80.8888686,7.38762],[80.8875489,7.3870987],[80.8870447,7.3869284],[80.8863902,7.3870348],[80.8850062,7.3878222],[80.8845019,7.3878647],[80.8840299,7.3878115],[80.88359,7.3876519],[80.8831286,7.3876626],[80.8826673,7.3877264],[80.8822811,7.3879711],[80.8823025,7.3883542],[80.88256,7.3887478],[80.8836329,7.3889713],[80.8840513,7.3892266],[80.8845556,7.3900884],[80.8847809,7.3906417],[80.8849311,7.3910886],[80.8849096,7.3915461],[80.8846843,7.3919504],[80.8841801,7.3921419],[80.8836973,7.3921525],[80.8832574,7.3920249],[80.8828497,7.3918014],[80.8810549,7.3903079],[80.8803499,7.3899182],[80.8797705,7.3904608],[80.8798242,7.3915035],[80.8808005,7.3943762],[80.8816266,7.395653],[80.882561,7.3962635],[80.8837831,7.3961637],[80.8863687,7.3954295],[80.8871451,7.3953153],[80.8874713,7.3953153],[80.8877975,7.3954282],[80.8883286,7.3958269],[80.8892314,7.3971059],[80.889459,7.3973541],[80.8903314,7.3978055],[80.8914757,7.3983129],[80.8922128,7.3988437],[80.8942991,7.4002506],[80.8945646,7.4008449],[80.894686,7.4014994],[80.8948226,7.4018004],[80.895035,7.4021013],[80.8953688,7.4022141],[80.8960569,7.4023452],[80.8969544,7.4019433],[80.8974247,7.4014468],[80.8979634,7.3993327],[80.8985854,7.3980839],[80.8991848,7.3973316],[80.8994655,7.3971134],[80.8998296,7.3970532],[80.900171,7.3970532],[80.9004896,7.3971736],[80.9012559,7.3984149],[80.9016573,7.3986214],[80.9025076,7.3987083],[80.9028414,7.3986632],[80.9031525,7.3985879],[80.9035456,7.3981639],[80.9040177,7.397334],[80.9041572,7.3960573],[80.904243,7.3956104],[80.9045112,7.3952274],[80.9049082,7.3949933],[80.9053481,7.3948337],[80.906378,7.3946635],[80.9093821,7.3951104],[80.9098005,7.3948763],[80.9098327,7.3942379],[80.9099722,7.393791],[80.9105408,7.3930676],[80.9114635,7.3927909],[80.9134269,7.3927377],[80.9142959,7.3924292],[80.9146285,7.39211],[80.9165704,7.3884925],[80.9171798,7.3874158],[80.9175743,7.3868289],[80.9181509,7.3863625],[80.9188033,7.3860615],[80.9194405,7.385896],[80.9197355,7.3855603],[80.9201109,7.3842578],[80.9200358,7.3838322],[80.9198105,7.383513],[80.919317,7.383545],[80.9184158,7.3838003],[80.9179115,7.3838642],[80.9174287,7.3838003],[80.9169245,7.383662],[80.9165919,7.3833322],[80.916549,7.382864],[80.9165704,7.3823959],[80.9167528,7.3812787],[80.9166455,7.3807999],[80.9163129,7.3804594],[80.9158301,7.3803956],[80.9153473,7.3804488],[80.9145534,7.3809808],[80.9140813,7.3811829],[80.9135771,7.3812893],[80.9131157,7.3811723],[80.9125597,7.3808327],[80.9123017,7.380607],[80.9121196,7.3803286],[80.9119983,7.3800276],[80.9115279,7.3784853],[80.9109362,7.3763486],[80.9108982,7.3760251],[80.9108982,7.3757016],[80.9109589,7.375378],[80.9110665,7.3750968],[80.9115064,7.3749479],[80.9118819,7.3749479],[80.9123169,7.3750997],[80.9125364,7.3753628],[80.913341,7.3764534],[80.9138238,7.3769748],[80.914017,7.3771131],[80.9142369,7.3772302],[80.9146821,7.3773951],[80.9159052,7.3776983],[80.9163934,7.3777143],[80.9166241,7.3776824],[80.9168386,7.3775813],[80.9174985,7.3771397],[80.9178525,7.3769748],[80.9182066,7.3770174],[80.91914,7.3777462],[80.9193546,7.3778632],[80.9195799,7.3779164],[80.9202719,7.377943],[80.9205186,7.3780122],[80.9207386,7.3781292],[80.9213005,7.3785583],[80.9211702,7.3937655],[80.93526,7.4042497],[80.9395945,7.4042922],[80.9404313,7.4036326],[80.9405923,7.4031964],[80.9405601,7.4022601],[80.9399915,7.4009621],[80.9400129,7.4002599],[80.9409356,7.3972489],[80.9413218,7.395887],[80.9413218,7.3954295],[80.9408283,7.3931208],[80.9408283,7.3926313],[80.9410536,7.391578],[80.9417295,7.3904396],[80.9428882,7.3891521],[80.9432316,7.388833],[80.9440791,7.3884074],[80.9444547,7.3881095],[80.9445727,7.3876626],[80.9443152,7.3866837],[80.9442401,7.3860666],[80.9444682,7.3855951],[80.9447185,7.3853844],[80.945682,7.3852038],[80.9459779,7.3850609],[80.9461903,7.3848051],[80.9462889,7.3844214],[80.9462358,7.3840828],[80.9460689,7.3837969],[80.9453786,7.3833004],[80.9451306,7.3829066],[80.9451091,7.3824171],[80.9452379,7.3819703],[80.945549,7.3816085],[80.9459996,7.3814702],[80.9472871,7.3814595],[80.9477806,7.3813212],[80.9481704,7.3808703],[80.9481552,7.3802007],[80.9478366,7.3796138],[80.9475635,7.3794182],[80.9472372,7.3793204],[80.9462055,7.37917],[80.9459703,7.3789217],[80.9459475,7.3786057],[80.9458793,7.3784176],[80.9454468,7.3784251],[80.9450068,7.3786358],[80.9444606,7.3789593],[80.944142,7.3790496],[80.9438309,7.3789142],[80.9436261,7.3786584],[80.9432544,7.3780866],[80.9430571,7.3774696],[80.9430268,7.3771235],[80.9429888,7.3751298],[80.9429206,7.3740915],[80.9431254,7.372677],[80.9433757,7.3714657],[80.9436413,7.3708413],[80.9438689,7.3706005],[80.9441723,7.3704575],[80.9445289,7.3703898],[80.9448779,7.3704049],[80.946031,7.3712927],[80.9461751,7.3715936],[80.9461827,7.3729253],[80.9464103,7.3742796],[80.9463876,7.3749417],[80.9463269,7.3752802],[80.9457882,7.3765066],[80.9456744,7.3771837],[80.9457427,7.3775072],[80.945902,7.377748],[80.9463724,7.3779135],[80.9468579,7.3780188],[80.9471841,7.378064],[80.9474724,7.378222],[80.9479124,7.3787486],[80.9484359,7.3791624],[80.9492934,7.3796827],[80.9496573,7.3799524],[80.949862,7.3803104],[80.9498727,7.3812361],[80.9497938,7.3813869],[80.9493159,7.3822998],[80.9492476,7.3828565],[80.9495663,7.3844816],[80.9498773,7.385422],[80.9501353,7.38719],[80.9506511,7.3884013],[80.9506663,7.3886872],[80.9505373,7.3890182],[80.9503856,7.3893192],[80.9495132,7.3909969],[80.9493311,7.3912677],[80.9487697,7.3915912],[80.9484511,7.3916665],[80.9477911,7.3916514],[80.9475407,7.3914257],[80.9474193,7.3911173],[80.947448,7.3907907],[80.9477484,7.3904129],[80.9476197,7.3902161],[80.9469545,7.3899927],[80.9460462,7.3892289],[80.9457351,7.3891461],[80.9454013,7.3891461],[80.9450903,7.3892364],[80.9445516,7.3896427],[80.9443022,7.3898881],[80.9439751,7.3901994],[80.9428614,7.391062],[80.9427488,7.3912748],[80.9427541,7.3915088],[80.942899,7.3916897],[80.9432013,7.3919223],[80.9432847,7.3923436],[80.9433606,7.3931862],[80.9433302,7.3938407],[80.9435123,7.3954131],[80.9434744,7.3964288],[80.9432392,7.3970532],[80.9432088,7.3973917],[80.9432771,7.3977077],[80.9438537,7.3983848],[80.9441268,7.3985654],[80.9448096,7.3987234],[80.9479731,7.3987158],[80.9483221,7.3988287],[80.9486559,7.3990092],[80.9488835,7.3992425],[80.9489518,7.3995885],[80.9489669,7.399912],[80.9489138,7.4002506],[80.9487014,7.4005214],[80.948398,7.4006719],[80.9478062,7.4006042],[80.9475407,7.4004161],[80.9471234,7.399912],[80.9468655,7.3997089],[80.9465469,7.3996262],[80.9462282,7.3996863],[80.9461372,7.4000023],[80.9461827,7.4003258],[80.9460841,7.4006493],[80.9458034,7.4007622],[80.945462,7.4007847],[80.945151,7.4009277],[80.9449234,7.4011835],[80.9448779,7.4014994],[80.9449461,7.4018079],[80.9455606,7.4030492],[80.9460765,7.4054943],[80.9463193,7.4063594],[80.946471,7.4066679],[80.9468352,7.4070741],[80.9469793,7.4074728],[80.9468276,7.4077587],[80.9463117,7.4081499],[80.9461448,7.4084358],[80.9460613,7.4087668],[80.9460386,7.4090903],[80.946251,7.4100834],[80.946122,7.4103993],[80.9458186,7.4108883],[80.9454241,7.41143],[80.9454848,7.4118513],[80.9463876,7.4134762],[80.9467184,7.4134314],[80.9467399,7.41291],[80.9467292,7.4117291],[80.946815,7.4112716],[80.94726,7.409805],[80.948178,7.4081349],[80.9484131,7.4078941],[80.9487166,7.4077361],[80.9490504,7.4076985],[80.9493766,7.4077211],[80.9496649,7.4078716],[80.9498925,7.4081273],[80.9499987,7.4085186],[80.9497256,7.4094514],[80.9497028,7.4096094],[80.9497256,7.4099103],[80.9500442,7.410294],[80.9503325,7.4107303],[80.9503022,7.4110538],[80.9500746,7.4112795],[80.9489594,7.4113848],[80.9488987,7.4117234],[80.949498,7.4125735],[80.9495056,7.4129572],[80.9488835,7.4139201],[80.9488911,7.4142812],[80.9492173,7.4149959],[80.9492249,7.4154924],[80.9490504,7.4163576],[80.9490428,7.4168992],[80.9491263,7.4172829],[80.9493463,7.4175988],[80.9496421,7.4177493],[80.9499759,7.4176891],[80.9502339,7.417471],[80.9503629,7.4171625],[80.950727,7.4158535],[80.950947,7.4155902],[80.9512505,7.4154397],[80.9518726,7.4155977],[80.9521533,7.4158385],[80.9533064,7.4174935],[80.9535416,7.4181555],[80.9536478,7.4188176],[80.953754,7.4199535],[80.954065,7.4208487],[80.954285,7.421112],[80.9547023,7.4217214],[80.9549754,7.4222856],[80.9550437,7.4226091],[80.9550285,7.4229476],[80.9546416,7.4238729],[80.9543381,7.4251292],[80.9540423,7.4262125],[80.9537616,7.4282813],[80.953625,7.4285897],[80.9534505,7.4288906],[80.9531698,7.4290637],[80.9528664,7.429184],[80.9524719,7.4291915],[80.9519863,7.4291013],[80.9514932,7.4287928],[80.9512808,7.4284092],[80.9511367,7.4275892],[80.9509925,7.4272883],[80.9507498,7.4270701],[80.9502035,7.426694],[80.9498849,7.4265887],[80.9489366,7.4264758],[80.9486028,7.4264758],[80.9482918,7.4267241],[80.9480414,7.4271077],[80.9479655,7.427845],[80.9483069,7.4292141],[80.9482311,7.4295376],[80.9480642,7.4298235],[80.9477911,7.4300416],[80.9474952,7.430162],[80.9448399,7.4303651],[80.9445213,7.4303425],[80.9442406,7.4301394],[80.944142,7.429831],[80.9438385,7.428364],[80.9439523,7.4280631],[80.9442027,7.42786],[80.9444985,7.4277848],[80.9447868,7.4276494],[80.9449689,7.4273861],[80.9450068,7.4270476],[80.9449765,7.4267241],[80.9448475,7.4260696],[80.9447565,7.4257536],[80.944802,7.4254151],[80.9450675,7.4248133],[80.9450979,7.4244823],[80.9448854,7.4228799],[80.9448172,7.4225263],[80.9444985,7.4221276],[80.9441167,7.4219054],[80.9434247,7.421783],[80.9431178,7.4215484],[80.9427916,7.4210218],[80.9426171,7.4208713],[80.9420102,7.4208262],[80.9418509,7.4205403],[80.9418129,7.4198933],[80.941904,7.4195623],[80.9421771,7.4189605],[80.9424881,7.4179675],[80.9428447,7.4165908],[80.9430799,7.4160265],[80.9434061,7.4156053],[80.9437247,7.4155075],[80.9440434,7.4155977],[80.9443013,7.4158084],[80.9445972,7.4159438],[80.9449158,7.4159664],[80.9452041,7.4158385],[80.9453634,7.4155526],[80.9452799,7.4149282],[80.9449992,7.4145972],[80.9445365,7.4144241],[80.9439675,7.4144618],[80.9430951,7.414868],[80.9423819,7.4152893],[80.9417978,7.415688],[80.9414943,7.4162146],[80.9413578,7.4168541],[80.9413047,7.4179976],[80.9412591,7.4183286],[80.9410164,7.4187875],[80.940766,7.4190809],[80.9393398,7.4214807],[80.9391956,7.4218568],[80.9391273,7.4228649],[80.9389073,7.4237601],[80.9387177,7.4240234],[80.9384901,7.4242566],[80.9382018,7.4244071],[80.9375721,7.4245801],[80.93673,7.4245876],[80.9359941,7.4243318],[80.9355541,7.4241438],[80.9352886,7.4238654],[80.93497,7.4233915],[80.9348638,7.4229702],[80.9348941,7.4226467],[80.9350914,7.4220223],[80.9352886,7.421759],[80.9358045,7.4214882],[80.9368818,7.421255],[80.9371397,7.4210218],[80.9372307,7.4207058],[80.9372232,7.4203748],[80.93695,7.4201867],[80.9363052,7.4200363],[80.9360017,7.4199009],[80.9358879,7.4197278],[80.9359183,7.4192163],[80.9362824,7.4182157],[80.9368742,7.417659],[80.9371397,7.4173355],[80.9371912,7.416421],[80.9373629,7.415506],[80.937835,7.4148144],[80.9390151,7.4139633],[80.9393477,7.4136335],[80.9395945,7.4132292],[80.9399164,7.4123142],[80.9398627,7.4113461],[80.9394336,7.4111333],[80.9390044,7.4112822],[80.9386611,7.4115908],[80.9379637,7.4124738],[80.9371591,7.4129845],[80.9367084,7.4131654],[80.9362471,7.4131654],[80.9353459,7.4129739],[80.934509,7.4124845],[80.9340691,7.4123462],[80.9336185,7.4123781],[80.9332108,7.4126547],[80.9326744,7.4134314],[80.9321272,7.414474],[80.9320307,7.4147932],[80.932138,7.41524],[80.9325671,7.4160805],[80.9326315,7.4165273],[80.9325027,7.4169742],[80.9321165,7.4172295],[80.9317517,7.4172721],[80.9313118,7.4170912],[80.9310222,7.4167401],[80.9306145,7.4164529],[80.9301638,7.4165805],[80.9300244,7.4170167],[80.9302068,7.4184105],[80.9300566,7.4188573],[80.9296596,7.4190807],[80.9292412,7.4190382],[80.928179,7.4188041],[80.9272456,7.4187935],[80.9264839,7.4191658],[80.9252393,7.4205595],[80.9239411,7.4215064],[80.9228253,7.4222192],[80.922482,7.422549],[80.9220958,7.4233895],[80.9214842,7.4249002],[80.9211731,7.4258258],[80.9209478,7.4262301],[80.9206366,7.4266024],[80.9193385,7.4274535],[80.9190166,7.4278153],[80.9188235,7.4282515],[80.9187055,7.4286983],[80.9188449,7.4291345],[80.9191346,7.4294962],[80.9193063,7.4301239],[80.9191523,7.4307036],[80.9185302,7.4309293],[80.9179081,7.4307036],[80.9165168,7.4291983],[80.9158301,7.4278046],[80.9152186,7.4263365],[80.914489,7.4250492],[80.9142959,7.4244215],[80.9143066,7.4237512],[80.914253,7.423081],[80.914135,7.422666],[80.9135234,7.4219852],[80.9127724,7.4215383],[80.9123111,7.4215702],[80.9119034,7.4217724],[80.9116459,7.4221873],[80.9116888,7.4226554],[80.9118283,7.4231129],[80.9123647,7.4244108],[80.9124613,7.4249853],[80.9122574,7.4256556],[80.9119892,7.4260279],[80.9113347,7.4266344],[80.9112918,7.4274855],[80.9113686,7.4281609],[80.9122334,7.4301169],[80.9131286,7.4316064],[80.9159508,7.4327648],[80.9177412,7.4327047],[80.9186543,7.4330892],[80.91938,7.4362074],[80.9197603,7.4399981],[80.9195712,7.4404258],[80.9195771,7.440871],[80.9199277,7.4410586],[80.9186613,7.4421365],[80.9186906,7.4436526],[80.9195484,7.4442019],[80.9207835,7.444313],[80.9209943,7.4438674],[80.9210072,7.4430487],[80.92147,7.4418103],[80.9228469,7.4393789],[80.9235408,7.4391723],[80.9252954,7.4398994],[80.9251241,7.441159],[80.9246455,7.442278],[80.9255672,7.4437251],[80.9256086,7.4454885],[80.9254668,7.4467364],[80.9232098,7.4476679],[80.9226367,7.4487693],[80.9223117,7.4495953],[80.921985,7.4501043],[80.9204192,7.4513304],[80.9194178,7.4521805],[80.9190916,7.4526168],[80.9181357,7.454031],[80.917855,7.4542491],[80.9174833,7.4544597],[80.9171495,7.4544823],[80.916846,7.454377],[80.9162239,7.453873],[80.9160115,7.4536323],[80.9158749,7.4531734],[80.9159053,7.4528123],[80.9158446,7.4524212],[80.9144714,7.4490436],[80.9140163,7.4486374],[80.9136369,7.4483892],[80.9131742,7.4483892],[80.9128328,7.448502],[80.9125217,7.4489233],[80.9122865,7.4496755],[80.9121576,7.4502623],[80.9118465,7.4524137],[80.9115658,7.4538655],[80.9113686,7.45455],[80.9112017,7.4548735],[80.9108831,7.4550766],[80.9105493,7.4551743],[80.9100182,7.4551819],[80.9095478,7.4551217],[80.9092065,7.4551443],[80.9089485,7.4553398],[80.9086526,7.4557987],[80.9082657,7.4559943],[80.9078333,7.4560319],[80.9072947,7.4558664],[80.9070216,7.4558814],[80.9067485,7.456077],[80.9065967,7.4563102],[80.9066574,7.4578222],[80.9070056,7.4578625],[80.9073129,7.4579739],[80.9074285,7.4581979],[80.9075967,7.4587673],[80.9077855,7.4589171],[80.9081811,7.4590363],[80.9085928,7.4593799],[80.9091015,7.4599069],[80.9093772,7.4602782],[80.9095049,7.4605984],[80.9095023,7.4609025],[80.9094492,7.4611846],[80.908808,7.4628961],[80.908821,7.4634676],[80.9089495,7.4638849],[80.9091837,7.4644192],[80.9094113,7.46469],[80.9096806,7.4647238],[80.9098627,7.4646448],[80.9100334,7.4644492],[80.9106865,7.4632346],[80.9110351,7.463012],[80.911232,7.4629824],[80.9114487,7.4630179],[80.9118845,7.4613877],[80.9121803,7.4608913],[80.9124307,7.4606882],[80.9129845,7.4604098],[80.9139859,7.4600563],[80.9145473,7.4598081],[80.9150935,7.4594244],[80.9155335,7.4590634],[80.9156746,7.4588582],[80.9157228,7.4584274],[80.9155184,7.4568443],[80.9155184,7.4563403],[80.915708,7.4560168],[80.9161253,7.4557611],[80.9178398,7.4554903],[80.9181281,7.4554978],[80.9185833,7.4556859],[80.9193192,7.4563027],[80.9197516,7.4565133],[80.9201309,7.4564832],[80.9204799,7.4562726],[80.9206013,7.4560244],[80.9205785,7.4556934],[80.9203282,7.4553248],[80.9200323,7.4548133],[80.9200854,7.4545124],[80.9202826,7.4541588],[80.9212158,7.4534894],[80.9220763,7.4528278],[80.9231861,7.452876],[80.9235844,7.4505747],[80.9245416,7.4513011],[80.9252388,7.4515003],[80.9253806,7.4520393],[80.9243289,7.453293],[80.9248725,7.4544295],[80.9256642,7.4548982],[80.9260187,7.4545701],[80.9261723,7.4537382],[80.9269049,7.4526837],[80.9276258,7.4527072],[80.9277085,7.4523791],[80.9277618,7.4516286],[80.9271967,7.4509649],[80.927152,7.4496671],[80.9273454,7.4478974],[80.9280593,7.4470567],[80.9282675,7.4459801],[80.9284906,7.4451542],[80.9289517,7.4439449],[80.9293087,7.4433992],[80.9302755,7.4422931],[80.930796,7.4415999],[80.9309001,7.4404201],[80.9304837,7.4394614],[80.9311679,7.4384881],[80.9325808,7.4380456],[80.9330717,7.4386355],[80.9347524,7.4414672],[80.9350201,7.4422931],[80.9340533,7.4450067],[80.933503,7.4464226],[80.9324619,7.448502],[80.9316884,7.4490035],[80.9313612,7.4500506],[80.9314356,7.4511861],[80.9308276,7.4520999],[80.9314797,7.4534556],[80.9313324,7.4567092],[80.9304763,7.458767],[80.9306547,7.4618935],[80.9321718,7.4637812],[80.9340459,7.4643711],[80.9350906,7.4714121],[80.9334202,7.4759335],[80.930728,7.4777747],[80.9280404,7.4776501],[80.9279634,7.474732],[80.9295147,7.4721523],[80.9298383,7.4706638],[80.9301527,7.4680652],[80.9284031,7.4686666],[80.9263221,7.4696551],[80.9220365,7.4663454],[80.9208784,7.464916],[80.9204767,7.4648925],[80.9190232,7.4633108],[80.9184087,7.462104],[80.918075,7.461666],[80.9174481,7.4613209],[80.9173375,7.4620017],[80.917713,7.4622677],[80.9181812,7.4629223],[80.9186326,7.464132],[80.9191214,7.4649895],[80.9196186,7.4663275],[80.9196687,7.4670317],[80.9195518,7.4678022],[80.9193554,7.4683572],[80.9197314,7.4691857],[80.9194544,7.4699828],[80.9197261,7.4704631],[80.9195725,7.471049],[80.9195489,7.4727244],[80.9179222,7.4750065],[80.9176218,7.4769319],[80.9175682,7.4798359],[80.9174931,7.4808146],[80.917182,7.4820592],[80.9166992,7.4834952],[80.9166992,7.484325],[80.9169674,7.4849738],[80.9174073,7.4853142],[80.9184587,7.4853355],[80.9204328,7.484442],[80.9214198,7.4842079],[80.9224713,7.484293],[80.9238516,7.4847111],[80.9230411,7.4871384],[80.9202253,7.4886876],[80.9209019,7.4981047],[80.9175958,7.5089791],[80.9166235,7.5143004],[80.9130063,7.5156886],[80.9090001,7.5147246],[80.9083389,7.5114855],[80.9117228,7.5050844],[80.9091557,7.5048144],[80.9055385,7.5106757],[80.901299,7.5075523],[80.9000155,7.5049687],[80.9011046,7.5037347],[80.9012601,7.5009969],[80.8981486,7.501074],[80.8984208,7.5055471],[80.9006378,7.5100588],[80.9017658,7.513375],[80.8994321,7.5148788],[80.8983819,7.5137991],[80.8985375,7.5110999],[80.8974096,7.508285],[80.895426,7.5048916],[80.8925867,7.5017295],[80.8901092,7.5011254],[80.8892028,7.5029635],[80.8906593,7.5068162],[80.8915827,7.5135048],[80.8970015,7.5175772],[80.8967682,7.5227442],[80.8939678,7.5241709],[80.8919064,7.5270436],[80.893131,7.5294126],[80.8933449,7.5324202],[80.8910112,7.533924],[80.890644,7.535638],[80.8888976,7.536306],[80.8865048,7.5363605],[80.8862523,7.5362524],[80.8860433,7.5359777],[80.8857516,7.5357945],[80.8854064,7.5358235],[80.8849883,7.5362958],[80.8847987,7.5362331],[80.8847938,7.5360452],[80.88475,7.5358138],[80.8845361,7.5355294],[80.8843854,7.5353704],[80.8843319,7.5351535],[80.8840159,7.5348065],[80.8835735,7.5346619],[80.8829414,7.5345944],[80.8827761,7.5344353],[80.8822705,7.5341076],[80.8817309,7.5341172],[80.8811085,7.5344739],[80.8779678,7.5344546],[80.8759542,7.5345974],[80.8756723,7.5336636],[80.8743247,7.5336091],[80.8748186,7.5310829],[80.8738872,7.5296056],[80.8734497,7.5294706],[80.8718161,7.5320926],[80.8698227,7.5339531],[80.8676058,7.5342134],[80.8666888,7.5340846],[80.8659243,7.5345972],[80.8650524,7.5350798],[80.8641861,7.5349026],[80.8640275,7.5342326],[80.863416,7.5337506],[80.8602873,7.5335748],[80.8584547,7.5342265],[80.8580628,7.5352899],[80.8571417,7.5362594],[80.858003,7.5371129],[80.8599676,7.5420901],[80.8597997,7.5450697],[80.8590105,7.548998],[80.858087,7.5523937],[80.8554844,7.5548156],[80.853545,7.5557061],[80.8526467,7.5562221],[80.8515552,7.55787],[80.8504302,7.5590518],[80.8494479,7.5597759],[80.8474498,7.5606498],[80.8463416,7.5612989],[80.8446793,7.5636625],[80.8438565,7.5664422],[80.8438481,7.5673078],[80.8423453,7.5688474],[80.8414806,7.5690804],[80.837585,7.5690305],[80.837627,7.5694966],[80.8374591,7.5711194],[80.8369134,7.5720016],[80.8363257,7.5732832],[80.8349236,7.5753472],[80.8341596,7.5752057],[80.8332865,7.5749061],[80.8323966,7.5746564],[80.8316074,7.5742153],[80.8317585,7.5733997],[80.8313723,7.5727756],[80.8305496,7.5727589],[80.8296535,7.5735196],[80.8288251,7.5746062],[80.8285723,7.575146],[80.8280472,7.5770351],[80.8277555,7.5775364],[80.8260636,7.5788858],[80.8245662,7.5794641],[80.8239439,7.5795219],[80.8205211,7.5810448],[80.8200933,7.5815075],[80.8179541,7.5827027],[80.8172346,7.5841292],[80.8163983,7.5861147],[80.815601,7.588428],[80.8153287,7.5889292],[80.814687,7.5898159],[80.8139626,7.589938],[80.8127422,7.5901436],[80.8123338,7.590587],[80.7922124,7.5936853],[80.7802328,7.5952427],[80.7707452,7.5989997],[80.7662486,7.6027263],[80.7587295,7.6041882],[80.7501397,7.6040036],[80.7304022,7.6011615],[80.7323456,7.5976307],[80.7327104,7.597301],[80.7332146,7.5970884],[80.7343948,7.5968969],[80.7351351,7.5971309],[80.7359612,7.5980561],[80.7365405,7.5990558],[80.7370448,7.5998746],[80.7376778,7.600098],[80.7384181,7.5999703],[80.7390189,7.5995981],[80.7398987,7.5988643],[80.7401991,7.5983432],[80.7402313,7.597769],[80.7399738,7.597418],[80.7395124,7.5973436],[80.7391369,7.5974925],[80.7387292,7.5974712],[80.7383752,7.5972479],[80.7380748,7.5965247],[80.73771,7.5952592],[80.7373238,7.5937491],[80.7371199,7.5932918],[80.736798,7.5931429],[80.7354784,7.5933875],[80.7346201,7.5933875],[80.7342338,7.5932811],[80.7337832,7.5928557],[80.7334936,7.5921538],[80.7333863,7.5913562],[80.7334828,7.590548],[80.7338047,7.5896972],[80.7338583,7.5886975],[80.733794,7.5877829],[80.733515,7.5856772],[80.7331824,7.5849753],[80.7322168,7.5840075],[80.7316589,7.5836247],[80.7305431,7.5831461],[80.7281399,7.5826037],[80.7271421,7.5821996],[80.7259297,7.5814977],[80.7253826,7.5809021],[80.725168,7.5802427],[80.7252324,7.5795195],[80.7253718,7.5784986],[80.7251787,7.5779987],[80.7248139,7.5777116],[80.7242668,7.5776265],[80.7233763,7.5775839],[80.7215864,7.577357],[80.7209188,7.5767855],[80.7203574,7.5756274],[80.7192801,7.5718823],[80.7191587,7.570649],[80.7193256,7.5699571],[80.7198112,7.5693705],[80.7207367,7.568829],[80.7225119,7.5681071],[80.7235285,7.5676408],[80.7242113,7.5669189],[80.7247272,7.5658359],[80.7247879,7.5648583],[80.7245147,7.564016],[80.7238623,7.5630985],[80.7182479,7.5582914],[80.7170649,7.5577289],[80.7161393,7.557789],[80.7153503,7.5581952],[80.7150014,7.5589622],[80.7136358,7.562181],[80.712953,7.5630534],[80.7123148,7.5640346],[80.7123148,7.5650875],[80.7121646,7.5656937],[80.7117355,7.566034],[80.7113492,7.5660766],[80.7102764,7.5658958],[80.7097506,7.5658639],[80.7095897,7.5661085],[80.7094717,7.5670869],[80.7092786,7.5675974],[80.708828,7.567842],[80.7081735,7.5679059],[80.7072723,7.5676293],[80.7061779,7.567172],[80.7058673,7.5668662],[80.7057232,7.5665654],[80.7056625,7.5661593],[80.705488,7.5659638],[80.7051618,7.5660014],[80.7038569,7.5670768],[80.7035155,7.5674002],[80.7034245,7.5677536],[80.7034776,7.5679717],[80.70391,7.5681296],[80.7045321,7.5679341],[80.7051162,7.5677085],[80.7056549,7.5677386],[80.7062087,7.5678589],[80.7066487,7.5681071],[80.7073163,7.5687764],[80.7075439,7.5690321],[80.7078246,7.5690998],[80.7080218,7.5690546],[80.7087501,7.5684229],[80.7093343,7.5681447],[80.7102523,7.5680168],[80.7106619,7.568077],[80.7110109,7.56825],[80.7112233,7.5685959],[80.7113523,7.569002],[80.711284,7.569566],[80.7109502,7.5700624],[80.7105861,7.570303],[80.7098502,7.5705286],[80.7095619,7.5704384],[80.7089853,7.5697992],[80.7085757,7.5697089],[80.7083177,7.5697916],[80.7076956,7.5701977],[80.7074453,7.5705061],[80.7068214,7.5716147],[80.7044648,7.5728171]]]]}
}]}
